ID,NAME,ADDRESS,CITY,URL,PHONE,TYPE,ZIP
882,TechSpace,41 East 11th Street,New York,http://www.techspace.com/,212-331-1100,Free,10003
883,TechSpace,95 Morton Street,New York,http://www.techspace.com/,212-331-1100,Free,10014
884,The Cellar,325 East 14th Street,New York,http://www.openwifispots.com/spot_free_wifi_wireless_hotspot_The_Cellar_New_York_NY_17413.aspx,212-477-7747,Free,10003
887,Cafe Ari,3 Greenwich Ave,New York,,212-206-7776,Free,10014
888,Dante's Gourmet Foods,166 William Street,New York,http://www.yelp.com/biz/dantes-gourmet-foods-new-york,212-233-2255,Free,10038
889,Think Coffee,118 Mercer Street,New York,http://www.thinkcoffeenyc.com/,212-228-6226,Free,10012
890,Applebee's,205 West 50th Street,New York,http://www.nyu.edu/src/cityguide/cityinfo.html,212-262-2400,Free,10019
891,Eagle Communication,1751 2nd Avenue,New York,http://www.ezgoal.com/hotspots/wireless/f.asp?fid=151674&wireless-internet,516-852-8649,Free,10128
892,Faces and Names,161 West 54th Street,New York,http://www.ezgoal.com/hotspots/wireless/f.asp?fid=122309&wireless-internet,212-586-9311,Free,10019
893,Full City Coffee,409 Grand Street,New York,http://www.openwifispots.com/spot_free_wifi_wireless_hotspot_Full_City_Coffee_New_York_NY_6396.aspx,212-260-2363,Free,10002
894,Schiller's Liquor Bar,131 Rivington St.,New York,http://www.wififreespot.com/ny.html,888-287-7913,Free,10002
895,Naidre's,502 Henry Street,Brooklyn,http://www.naidres.com/,718-596-3400,Free,11231
897,Amazon Café,227 Smith St,Brooklyn,http://www.openwifispots.com/spot_free_wifi_wireless_hotspot_Amazon_Cafe_New_York_NY_5572.aspx,718-852-5948,Free,11231
898,Cafe Andalucia,533 9th Avenue,New York,http://www.openwifispots.com/spot_free_wifi_wireless_hotspot_Cafe_Andalucia_New_York_NY_10565.aspx,212-505-0657,Free,10018
899,Caffe Med,1268 2nd Avenue,New York,http://usatoday.jiwire.com/wi-fi-wireless-hotspot-New-York-New-York-NY-US-Caffe-MED-1251392.htm,212-744-5370,Free,10021
900,Cyclo,203 1st Ave,New York,www.cyclorestaurant.com,212-673-3957,Free,10003
901,Digby's,666 5th Avenue,New York,www.digbyscafe.com,212-977-7272,Free,10019
902,Happy 16 Diner,16 Pell Street,New York,http://www.openwifispots.com/spot_free_wifi_wireless_hotspot_Happy_16_Diner_New_York_NY_12949.aspx,212-962-6588,Free,10013
903,Hip Cup Café,225 Park Row,New York,http://www.openwifispots.com/spot_free_wifi_wireless_hotspot_Hip_Cup_Cafe_New_York_NY_13116.aspx,212-227-8870,Free,10038
905,Les Halles Park Avenue,411 Park Avenue South,New York,http://www.leshalles.net,212-679-4111,Free,10016
906,Les Halles Downtown,15 John Street,New York,http://www.leshalles.net,212-285-8585,Free,10038
907,Lit Lounge,93 2nd Avenue,New York,http://www.litloungenyc.com,212-777-7987,Free,10003
908,Risa,47 E Houston St,New York,http://www.nyu.edu/src/cityguide/cityinfo.html,212-625-1712,Free,10012
911,Corner Scone,4279 Webster Avenue,Bronx,http://cornerscone.com/,718-231-7766,Free,10470
912,My Little Wi-Fi,144 East 7th St,New York,,,Free,10009
915,Barnes & Noble,106 Court Street,Brooklyn,http://www.barnesandnobleinc.com,,Free,11201
916,Barnes & Noble,267 7th Avenue,Brooklyn,http://www.barnesandnobleinc.com,,Free,11215
939,NYC Public Library - Allerton Branch,2740 Barnes Avenue,Bronx,http://www.nypl.org/branch/services/wifi.html,718-881-4240,Free,10467
940,NYC Public Library - Belmont Branch,610 E. 186th Street,Bronx,http://www.nypl.org/branch/services/wifi.html,718-933-6410,Free,10458
941,NYC Public Library - Bronx Library Center,310 East Kingsbridge Road,Bronx,http://www.nypl.org/branch/services/wifi.html,718-579-4288,Free,10458
942,NYC Public Library - Grand Concourse Branch,155 East 173rd Street,Bronx,http://www.nypl.org/branch/services/wifi.html,718-583-6611,Free,10457
943,NYC Public Library - High Bridge Branch,78 West 168th Street,Bronx,http://www.nypl.org/branch/services/wifi.html,718-293-7800,Free,10452
944,NYC Public Library - Melrose Branch,910 Morris Avenue,Bronx,http://www.nypl.org/branch/services/wifi.html,718-588-0110,Free,10451
945,NYC Public Library - Morris Park Branch,985 Morris Park Avenue,Bronx,http://www.nypl.org/branch/services/wifi.html,718-931-0636,Free,10462
946,NYC Public Library - Morrisania Branch,610 East 169th Street,Bronx,http://www.nypl.org/branch/services/wifi.html,718-589-9268,Free,10456
947,NYC Public Library - Mosholu Branch,285 East 205th Street,Bronx,http://www.nypl.org/branch/services/wifi.html,718-882-8239,Free,10467
948,NYC Public Library - Mott Haven Branch,321 East 140th Street,Bronx,http://www.nypl.org/branch/services/wifi.html,718-665-4878,Free,10454
949,NYC Public Library - Parkchester Branch,1985 Westchester Avenue,Bronx,http://www.nypl.org/branch/services/wifi.html,718-829-7830,Free,10462
950,NYC Public Library - Sedgwich Branch,1701 Martin Luther King Jr Blvd,Bronx,http://www.nypl.org/branch/services/wifi.html,718-731-2074,Free,10453
951,NYC Public Library - Tremont Branch,1866 Washington Avenue,Bronx,http://www.nypl.org/branch/services/wifi.html,718-299-5177,Free,10457
952,NYC Public Library - Woodstock Branch,761 East 160th Street,Bronx,http://www.nypl.org/branch/services/wifi.html,718-665-6255,Free,10456
953,NYC Public Library - Columbus Branch,742 10th Avenue,New York,http://www.nypl.org/branch/services/wifi.html,212-586-5098,Free,10019
954,NYC Public Library for the Performing Arts,40 Lincoln Center Plaza,New York,http://www.nypl.org/branch/services/wifi.html,212-870-1630,Free,10023
955,Queens Library - Arverne,312 Beach 54 Street,Arverne,http://www.queenslibrary.org/,718-634-4784,Free,11692
956,Queens Library - Auburndale,25-55 Francis Lewis Boulevard,Flushing,http://www.queenslibrary.org/,718-352-2027,Free,11358
957,Queens Library - Baisley Park,117-11 Sutphin Boulevard,Jamaica,http://www.queenslibrary.org/,718-529-1590,Free,11436
958,Queens Library - Bay Terrace,18-36 Bell Boulevard,Bayside,http://www.queenslibrary.org/,718-423-7004,Free,11360
959,Queens Library - Bayside,214-20 Northern Boulevard,Bayside,http://www.queenslibrary.org/,718-229-1834,Free,11361
960,Queens Library - Bellerose,250-06 Hillside Avenue,Bellerose,http://www.queenslibrary.org/,718-831-8644,Free,11426
961,Queens Library - Briarwood,85-12 Main Street,Briarwood,http://www.queenslibrary.org/,718-658-1680,Free,11435
962,Queens Library - Broad Channel,16-26 Cross Bay Boulevard,Broad Channel,http://www.queenslibrary.org/,718-318-4943,Free,11693
963,Queens Library - Cambria Heights,218-13 Linden Boulevard,Cambria Heights,http://www.queenslibrary.org/,718-528-3535,Free,11411
964,Queens Library - Douglaston/Little Neck,249-01 Northern Boulevard,Little Neck,http://www.queenslibrary.org/,718-225-8414,Free,11362
965,Queens Library - East Flushing,196-36 Northern Boulevard,Flushing,http://www.queenslibrary.org/,718-357-6643,Free,11358
966,Queens Library - Elmhurst  (ALC),86-01 Broadway,Elmhurst,http://www.queenslibrary.org/,718-271-1020,Free,11373
967,Queens Library - Far Rockaway,1637 Central Avenue,Far Rockaway,http://www.queenslibrary.org/,718-327-2549,Free,11691
968,Queens Library - Flushing  (ALC),41-17 Main Street,Flushing,http://www.queenslibrary.org/,718-661-1200,Free,11355
969,Queens Library - Forest Hills,108-19 71 Avenue,Forest Hills,http://www.queenslibrary.org/,718-268-7934,Free,11375
970,Queens Library - Fresh Meadows,193-20 Horace Harding Expressway,Fresh Meadows,http://www.queenslibrary.org/,718-454-7272,Free,11365
972,Queens Library - Glendale,78-60 73 Place,Glendale,http://www.queenslibrary.org/,718-821-4980,Free,11385
973,Queens Library - Hillcrest,187-05 Union Turnpike,Flushing,http://www.queenslibrary.org/,718-454-2786,Free,11366
974,Queens Library - Hollis,202-05 Hillside Avenue,Hollis,http://www.queenslibrary.org/,718-465-7355,Free,11423
975,Queens Library - Howard Beach,92-06 156 Avenue,Howard Beach,http://www.queenslibrary.org/,718-641-7086,Free,11414
976,Queens Library - Kew Gardens Hills,72-33 Vleigh Place,Flushing,http://www.queenslibrary.org/,718-261-6654,Free,11367
977,Queens Library - Laurelton,134-26 225 Street,Laurelton,http://www.queenslibrary.org/,718-528-2822,Free,11413
978,Queens Library - Lefferts,103-34 Lefferts Boulevard,Richmond Hill,http://www.queenslibrary.org/,718-843-5950,Free,11419
979,Queens Library - Lefrak City,98-30 57 Avenue,Corona,http://www.queenslibrary.org/,718-592-7677,Free,11368
980,Queens Library - Maspeth,69-70 Grand Avenue,Maspeth,http://www.queenslibrary.org/,718-639-5228,Free,11378
981,Queens Library - McGoldrick,155-06 Roosevelt Avenue,Flushing,http://www.queenslibrary.org/,718-461-1616,Free,11354
982,Queens Library - Middle Village,72-31 Metropolitan Avenue,Middle Village,http://www.queenslibrary.org/,718-326-1390,Free,11379
983,Queens Library - Mitchell-Linden,29-42 Union Street,Flushing,http://www.queenslibrary.org/,718-539-2330,Free,11354
984,Queens Library - North Forest Park,98-27 Metropolitan Avenue,Forest Hills,http://www.queenslibrary.org/,718-261-5512,Free,11375
985,Queens Library - North Hills,57-04 Marathon Parkway,Little Neck,http://www.queenslibrary.org/,718-225-3550,Free,11362
678,Starbucks,1 Penn Plaza,New York,http://www.starbucks.com,212-760-3001,Fee-based,10001
679,Starbucks,370 7th Avenue,New York,http://www.starbucks.com,212-967-2041,Fee-based,10001
680,Starbucks,450 W. 33rd Street,New York,http://www.starbucks.com,212-563-0692,Fee-based,10001
681,Starbucks,424 Park Avenue South,New York,http://www.starbucks.com,212-725-0637,Fee-based,10016
682,Starbucks,261 Fifth Avenue,New York,http://www.starbucks.com,212-779-1557,Fee-based,10016
683,Starbucks,395 Third Avenue,New York,http://www.starbucks.com,212-686-2483,Fee-based,10016
684,Starbucks,776 Avenue of the Americas,New York,http://www.starbucks.com,212-481-1856,Fee-based,10001
685,Starbucks,2855 Broadway,New York,http://www.starbucks.com,212-280-7268,Fee-based,10025
686,Starbucks,750 6th Avenue,New York,http://www.starbucks.com,212-481-1856,Fee-based,10010
687,Starbucks,304 Park Avenue South,New York,http://www.starbucks.com,212-475-9025,Fee-based,10010
688,Starbucks,2929 Broadway,New York,http://www.starbucks.com,212-932-0300,Fee-based,10025
689,Starbucks,300 W 23rd St,New York,http://www.starbucks.com,646-638-1571,Fee-based,10011
690,Starbucks,296-300 Third Avenue,New York,http://www.starbucks.com,212-598-9858,Fee-based,10010
691,Starbucks,684 Avenue of the Americas,New York,http://www.starbucks.com,212-691-1948,Fee-based,10010
692,Starbucks,177 Eighth Avenue,New York,http://www.starbucks.com,212-414-8786,Fee-based,10011
693,Starbucks,41 Union Square West,New York,http://www.starbucks.com,646-336-6945,Fee-based,10003
694,Starbucks,77-83 West 125th Street,New York,http://www.starbucks.com,917-492-2454,Fee-based,10027
695,Starbucks,124 Eighth Avenue,New York,http://www.starbucks.com,212-462-2020,Fee-based,10011
696,Starbucks,286A First Avenue,New York,http://www.starbucks.com,212-353-1214,Fee-based,10009
1140,LaGuardia Airport - Hertz,Marine Air Terminal Building #22,Flushing,https://www.hertz.com/rentacar/index.jsp?bsc=t&targetPage=reservationOnHomepage.jsp,718-478-5300,Fee-based,11371
1142,McDonald's,169 Tillary St,Brooklyn,http://www.mcdonalds.com/wireless.html,,Fee-based,11201
1143,McDonald's,208 Varick Street,New York,http://www.mcdonalds.com/wireless.html,,Fee-based,10014
1144,McDonald's,US Air East End Terminal - LaGuardia,Flushing,http://www.mcdonalds.com/wireless.html,,Fee-based,11371
1145,McDonald's,British Air Terminal - JFK,Jamaica,http://www.mcdonalds.com/wireless.html,,Fee-based,11430
1146,McDonald's,599 E Tremont Ave,Bronx,http://www.mcdonalds.com/wireless.html,,Fee-based,10457
1147,McDonald's,2505 Southern Blvd,Bronx,http://www.mcdonalds.com/wireless.html,,Fee-based,10458
1148,McDonald's,372 E Fordham Rd,Bronx,http://www.mcdonalds.com/wireless.html,,Fee-based,10458
1149,McDonald's,36 W Fordham Rd,Bronx,http://www.mcdonalds.com/wireless.html,,Fee-based,10468
1150,McDonald's,875 Garrison Ave,Bronx,http://www.mcdonalds.com/wireless.html,,Fee-based,10474
1151,McDonald's,701 Utica Ave,Brooklyn,http://www.mcdonalds.com/wireless.html,,Fee-based,11203
1152,McDonald's,5707-13 Church Ave,Brooklyn,http://www.mcdonalds.com/wireless.html,,Fee-based,11203
1153,McDonald's,2797 Linden Blvd,Brooklyn,http://www.mcdonalds.com/wireless.html,,Fee-based,11208
1154,McDonald's,1133 Eastern Parkway,Brooklyn,http://www.mcdonalds.com/wireless.html,,Fee-based,11213
1155,McDonald's,Atlantic Terminal,Brooklyn,http://www.mcdonalds.com/wireless.html,,Fee-based,11217
1156,McDonald's,3525 Fort Hamilton Parkway,Brooklyn,http://www.mcdonalds.com/wireless.html,,Fee-based,11218
1157,McDonald's,1656 Utica Ave,Brooklyn,http://www.mcdonalds.com/wireless.html,,Fee-based,11234
1158,McDonald's,2240-50 Flatbush Ave.,Brooklyn,http://www.mcdonalds.com/wireless.html,,Fee-based,11234
1159,McDonald's,2028 Rockaway Parkway,Brooklyn,http://www.mcdonalds.com/wireless.html,,Fee-based,11236
1160,McDonald's,136-61 Roosevelt Ave,Flushing,http://www.mcdonalds.com/wireless.html,,Fee-based,11354
1161,McDonald's,166-01 Baisley Boulevard,Jamaica,http://www.mcdonalds.com/wireless.html,,Fee-based,11434
1162,McDonald's,33-80 Queens Blvd,Long Island City,http://www.mcdonalds.com/wireless.html,,Fee-based,11101
1163,McDonald's,69-35 Grand Ave,Maspeth,http://www.mcdonalds.com/wireless.html,,Fee-based,11378
1164,McDonald's,451 Lexington Avenue,New York,http://www.mcdonalds.com/wireless.html,,Fee-based,10017
1165,McDonald's,966 1st Avenue,New York,http://www.mcdonalds.com/wireless.html,,Fee-based,10022
1166,McDonald's,3794 Broadway,New York,http://www.mcdonalds.com/wireless.html,,Fee-based,10032
1167,McDonald's,1815 Forest Ave,Staten Island,http://www.mcdonalds.com/wireless.html,,Fee-based,10303
1169,Pomegranate Café,133 Greene Street,New York,,,Fee-based,10012
1170,Public Telephone,264 West 35th Street,New York,,,Fee-based,10001
986,Queens Library - Ozone Park,92-24 Rockaway Boulevard,Ozone Park,http://www.queenslibrary.org/,718-845-3127,Free,11417
987,Queens Library - Peninsula  (ALC),92-25 Rockaway Beach Boulevard,Rockaway Beach,http://www.queenslibrary.org/,718-634-1110,Free,11693
988,Queens Library - Pomonok,158-21 Jewel Avenue,Flushing,http://www.queenslibrary.org/,718-591-4343,Free,11365
989,Queens Library - Poppenhusen,121-23 14 Avenue,College Point,http://www.queenslibrary.org/,718-359-1102,Free,11356
990,Queens Library - Queens Village,94-11 217 Street,Queens Village,http://www.queenslibrary.org/,718-776-6800,Free,11428
991,Queens Library - Queensboro Hill,60-05 Main Street,Flushing,http://www.queenslibrary.org/,718-359-8332,Free,11355
992,Queens Library - Rego Park,91-41 63 Drive,Rego Park,http://www.queenslibrary.org/,718-459-5140,Free,11374
993,Queens Library - Richmond Hill,118-14 Hillside Avenue,Richmond Hill,http://www.queenslibrary.org/,718-849-7150,Free,11418
994,Queens Library - Ridgewood,20-12 Madison Street,Ridgewood,http://www.queenslibrary.org/,718-821-4770,Free,11385
995,Queens Library - Rochdale Village  (ALC),169-09 137 Avenue,Jamaica,http://www.queenslibrary.org/,718-723-4440,Free,11434
996,Queens Library - Rosedale,144-20 243 Street,Rosedale,http://www.queenslibrary.org/,718-528-8490,Free,11422
997,Queens Library - Seaside,116-15 Rockaway Beach Boulevard,Rockaway Park,http://www.queenslibrary.org/,718-634-1876,Free,11694
998,Queens Library - South Hollis,204-01 Hollis Avenue,South Hollis,http://www.queenslibrary.org/,718-465-6779,Free,11412
345,McDonald's,216-07 LINDEN BLVD,Cambria Heights,http://www.mcdonalds.com/wireless.html,,Fee-based,11411
346,McDonald's,32-55 31ST STREET,Long Island City,http://www.mcdonalds.com/wireless.html,,Fee-based,11106
347,McDonald's,22 50 31ST ST,Astoria,http://www.mcdonalds.com/wireless.html,,Fee-based,11105
348,McDonald's,31-46 21ST ST,Long Island City,http://www.mcdonalds.com/wireless.html,,Fee-based,11106
349,Starbucks,101-102 Queens Boulevard,Elmhurst,http://www.starbucks.com,,Fee-based,11375
350,Starbucks,51-06 Northern Blvd,Woodside,http://www.starbucks.com,,Fee-based,11377
351,Starbucks,31-44 Steinway Street,Astoria,http://www.starbucks.com,,Fee-based,11103
352,Starbucks,3711 35th Avenue,Astoria,http://www.starbucks.com,,Fee-based,11101
353,Starbucks,7000 Austin Street,Forest Hills,http://www.starbucks.com,,Fee-based,11375
354,Starbucks,8989 Union Turnpike,Glendale,http://www.starbucks.com,,Fee-based,11375
355,Starbucks,107-12 Continental Avenue,Flushing,http://www.starbucks.com,,Fee-based,11375
356,Starbucks,22-04 31st Avenue,Astoria,http://www.starbucks.com,,Fee-based,11106
357,Starbucks,41-02 Main Street,Flushing,http://www.starbucks.com,,Fee-based,11355
358,McDonald's,803 Forest Ave,Staten Island,http://www.mcdonalds.com/wireless.html,,Fee-based,10310
359,McDonald's,3267 Richmond Ave,Staten Island,http://www.mcdonalds.com/wireless.html,,Fee-based,10312
360,McDonald's,501 Bay St,Staten Island,http://www.mcdonalds.com/wireless.html,,Fee-based,10304
361,McDonald's,2795 Richmond Ave,Staten Island,http://www.mcdonalds.com/wireless.html,,Fee-based,10314
362,Starbucks,2505 Richmond Avenue,Staten Island,http://www.starbucks.com,,Fee-based,10314
364,Starbucks,2530 Hylan Boulevard,Staten Island,http://www.starbucks.com,,Fee-based,10306
365,Starbucks,2070 Victory Blvd,Staten Island,http://www.starbucks.com,,Fee-based,10314
366,The UPS Store,150 L Greaves Lane,Staten Island,http://www.theupsstore.com/,,Fee-based,10308
367,The UPS Store,1652 Richmond Ave,Staten Island,http://www.theupsstore.com/,,Fee-based,10314
368,The UPS Store,1351 Forest Ave,Staten Island,http://www.theupsstore.com/,,Fee-based,10302
369,11 Broadway,11 Broadway,New York,,877-353-3377,Fee-based,10004
370,17 State Street,17 State Street,New York,,877-353-3377,Fee-based,10004
371,21NYC.com,159 West 25th Street,New York,,,Fee-based,10001
372,6 Time Square,1466 Broadway,New York,,877-353-3377,Fee-based,10036
373,7 West 31St Street,7 West 31St Street,New York,,877-353-3377,Fee-based,10001
374,875 Third Avenue Atrium,875 3rd Avenue,New York,,212-832-3409,Fee-based,10022
375,Active-Beauty.com,Broadway & Prince,New York,,917-206-4912,Fee-based,10012
376,Alfredo of Rome at Rockefeller,4 West 49th Street,New York,,212-397-0100,Fee-based,10020
377,Atrium Cafe,25 Union Square,New York,,212-924-3331,Fee-based,10003
378,Avis,217 E 43rd St,New York,http://www.avis.com,212-593-8350,Fee-based,10017
379,Avis of West 76th Street,216 West 76th Street,New York,,,Fee-based,10023
380,Bagel Deluxe,80 Lafayette Street,New York,,,Fee-based,10013
381,Balsley Park,West 57th Street & 9th Avenue,New York,,516-298-2969,Fee-based,10019
392,Basics Coffee,786 9th Avenue,New York,,212-541-5614,Fee-based,10019
393,Bean Coffee House,473 Amsterdam Avenue,New York,,917-441-4141,Fee-based,10024
394,Belly Deli,1625 Broadway,New York,,212-333-5650,Fee-based,10019
395,Cest Bon Café,11 E 55th Street,New York,,212-319-6680,Fee-based,10022
396,Borders,10 Columbus Circle,New York,http://www.borders.com,212-823-9775,Fee-based,10019
397,Borders,461 Park Avenue South,New York,http://www.borders.com,212-980-6785,Fee-based,10016
398,Borders,550 Second Avenue,New York,http://www.borders.com,212-685-3938,Fee-based,10016
399,Borders,100 Broadway,New York,http://www.borders.com,212-964-1988,Fee-based,10005
400,Buchmann Tower,680 Fifth Avenue,New York,,,Fee-based,10019
401,Cafe 39,62 W 39th Street,New York,,,Fee-based,10018
402,Cafe 7 Lounge,4710 Broadway,New York,,,Fee-based,10040
403,Cafe Duke II,1450 Broadway,New York,,212-354-4558,Fee-based,10018
404,Cafe Duke,545 Broadway,New York,,212-982-5700,Fee-based,10012
405,Cafe Exchange,49 Broadway,New York,,212-425-5000,Fee-based,10006
406,Swish Cafe and Shabu Shabu,88 West 3rd Street,New York,,212-777-8808,Fee-based,10012
407,Cybercafe Times Square,250 West 49th Street,New York,http://www.cyber-cafe.com,212-333-4109,Fee-based,10019
408,Cafe World,50 Trinity Place,New York,,,Fee-based,10006
411,Civic Deli,111 Worth Street,New York,,212-619-2720,Fee-based,10013
432,Davidoff Columbus Circle,10 Columbus Circle,New York,,212-823-6383,Fee-based,10019
433,Deli News,94 Fulton Street,New York,,212-566-6771,Fee-based,10038
434,Delmanico,375 Lexington Ave,New York,,212-661-1929,Fee-based,10017
435,Emmas Deli,270 Park Avenue South,New York,,212-777-0222,Fee-based,10010
436,Empire State Building,350 5th Ave,New York,,,Fee-based,10001
437,Fedex Kinko's,1122 Lexington Avenue,New York,http://www.FedexKinkos.com,212-628-5500,Fee-based,10021
437,Fedex Kinko's,1122 Lexington Avenue,New York,http://www.FedexKinkos.com,212-628-5500,Fee-based,10021
438,Fedex Kinko's,221 West 72nd Street,New York,http://www.FedexKinkos.com,212-362-5288,Fee-based,10023
438,Fedex Kinko's,221 West 72nd Street,New York,http://www.FedexKinkos.com,212-362-5288,Fee-based,10023
439,Fedex Kinko's,240 Central Park South,New York,http://www.FedexKinkos.com,212-258-3750,Fee-based,10019
439,Fedex Kinko's,240 Central Park South,New York,http://www.FedexKinkos.com,212-258-3750,Fee-based,10019
440,Fedex Kinko's,233 West 54th Street,New York,http://www.FedexKinkos.com,212-977-2679,Fee-based,10019
440,Fedex Kinko's,233 West 54th Street,New York,http://www.FedexKinkos.com,212-977-2679,Fee-based,10019
441,Fedex Kinko's,641 Lexington Avenue,New York,http://www.FedexKinkos.com,212-572-9995,Fee-based,10022
441,Fedex Kinko's,641 Lexington Avenue,New York,http://www.FedexKinkos.com,212-572-9995,Fee-based,10022
442,Fedex Kinko's,153 East 53rd Street,New York,http://www.FedexKinkos.com,212-753-7580,Fee-based,10022
442,Fedex Kinko's,153 East 53rd Street,New York,http://www.FedexKinkos.com,212-753-7580,Fee-based,10022
443,Fedex Kinko's,650 Avenue of the Americas,New York,http://www.FedexKinkos.com,646-638-9238,Fee-based,10011
443,Fedex Kinko's,650 Avenue of the Americas,New York,http://www.FedexKinkos.com,646-638-9238,Fee-based,10011
444,Fedex Kinko's,16 East 52nd Street,New York,http://www.FedexKinkos.com,212-308-2679,Fee-based,10022
444,Fedex Kinko's,16 East 52nd Street,New York,http://www.FedexKinkos.com,212-308-2679,Fee-based,10022
445,Fedex Kinko's,1211 Avenue Of Americas,New York,http://www.FedexKinkos.com,212-391-2679,Fee-based,10036
445,Fedex Kinko's,1211 Avenue Of Americas,New York,http://www.FedexKinkos.com,212-391-2679,Fee-based,10036
446,Fedex Kinko's,257 Park Avenue South,New York,http://www.FedexKinkos.com,646-602-0074,Fee-based,10010
446,Fedex Kinko's,257 Park Avenue South,New York,http://www.FedexKinkos.com,646-602-0074,Fee-based,10010
447,Fedex Kinko's,747 3rd Ave,New York,http://www.FedexKinkos.com,212-753-7778,Fee-based,10017
447,Fedex Kinko's,747 3rd Ave,New York,http://www.FedexKinkos.com,212-753-7778,Fee-based,10017
448,Fedex Kinko's,71 Vanderbilt Street,New York,http://www.FedexKinkos.com,212-949-2534,Fee-based,10017
448,Fedex Kinko's,71 Vanderbilt Street,New York,http://www.FedexKinkos.com,212-949-2534,Fee-based,10017
449,Fedex Kinko's,305 East 46th Street,New York,http://www.FedexKinkos.com,212-319-6600,Fee-based,10017
449,Fedex Kinko's,305 East 46th Street,New York,http://www.FedexKinkos.com,212-319-6600,Fee-based,10017
450,Fedex Kinko's,60 West 40th Street,New York,http://www.FedexKinkos.com,212-921-1060,Fee-based,10018
450,Fedex Kinko's,60 West 40th Street,New York,http://www.FedexKinkos.com,212-921-1060,Fee-based,10018
451,Fedex Kinko's,600 3rd Avenue,New York,http://www.FedexKinkos.com,212-599-2679,Fee-based,10016
451,Fedex Kinko's,600 3rd Avenue,New York,http://www.FedexKinkos.com,212-599-2679,Fee-based,10016
452,Fedex Kinko's,245 Seventh Avenue,New York,http://www.FedexKinkos.com,212-929-0623,Fee-based,10001
452,Fedex Kinko's,245 Seventh Avenue,New York,http://www.FedexKinkos.com,212-929-0623,Fee-based,10001
453,Fedex Kinko's,500 7th Avenue,New York,http://www.FedexKinkos.com,646-366-9166,Fee-based,10018
453,Fedex Kinko's,500 7th Avenue,New York,http://www.FedexKinkos.com,646-366-9166,Fee-based,10018
454,Fedex Kinko's,191 Madison Avenue,New York,http://www.FedexKinkos.com,212-685-3449,Fee-based,10016
454,Fedex Kinko's,191 Madison Avenue,New York,http://www.FedexKinkos.com,212-685-3449,Fee-based,10016
455,Fedex Kinko's,350 Fifth Avenue,New York,http://www.FedexKinkos.com,212-279-3556,Fee-based,10001
455,Fedex Kinko's,350 Fifth Avenue,New York,http://www.FedexKinkos.com,212-279-3556,Fee-based,10001
456,Fedex Kinko's,250 East Houston Street,New York,http://www.FedexKinkos.com,212-253-9020,Fee-based,10002
456,Fedex Kinko's,250 East Houston Street,New York,http://www.FedexKinkos.com,212-253-9020,Fee-based,10002
457,Fedex Kinko's,105 Duane Street,New York,http://www.FedexKinkos.com,212-406-1220,Fee-based,10007
457,Fedex Kinko's,105 Duane Street,New York,http://www.FedexKinkos.com,212-406-1220,Fee-based,10007
458,Fedex Kinko's,100 Wall Street,New York,http://www.FedexKinkos.com,212-269-0024,Fee-based,10005
458,Fedex Kinko's,100 Wall Street,New York,http://www.FedexKinkos.com,212-269-0024,Fee-based,10005
459,Fedex Kinko's,21 Astor Place,New York,http://www.FedexKinkos.com,212-228-9511,Fee-based,10003
459,Fedex Kinko's,21 Astor Place,New York,http://www.FedexKinkos.com,212-228-9511,Fee-based,10003
460,Flat Iron,10 West 18th Street,New York,,212-352-9333,Fee-based,10011
461,Food Expo,833B 2nd Avenue,New York,,212-983-5482,Fee-based,10017
462,Food Works,10 W. 18th Street,New York,,212-352-9333,Fee-based,10011
463,Smilers 707,707 Lexington Ave,New York,,212-980-0890,Fee-based,10022
465,Grand Central Station,42nd St & Park Ave,New York,http://www.grandcentralterminal.com/,516-298-2969,Fee-based,10017
466,Happy Shabu Shabu & Cafe,54 Canal Street,New York,,,Fee-based,10002
467,Happy Times,377 5th Ave,New York,,,Fee-based,10016
468,HotZone,Columbus Circle,New York,,,Fee-based,10023
469,Howard Grand Corp,307 W Broadway,New York,,212-226-3030,Fee-based,10013
470,Internet Cafe NYC,17 John Street,New York,,212-217-6043,Fee-based,10038
471,Jazz on the Park,36 W 106th Street,New York,,,Fee-based,10025
472,Juan Valdez NYC,140 East 57th Street,New York,,,Fee-based,10022
473,Klatch,9 Maiden Lane,New York,,212-227-7276,Fee-based,10038
474,Kudos Beans,49 1/2 First Ave,New York,,,Fee-based,10003
475,Lava Gina Lounge,116 Avenue C,New York,,,Fee-based,10009
476,Lemast's Deli,400 Broome Street,New York,,212-965-0219,Fee-based,10013
477,Lenny's,1024 2nd Avenue,New York,http://www.lennysnyc.com/,212-355-5700,Fee-based,10022
478,Lennys,489 Columbus Ave,New York,http://www.lennysnyc.com/,212-787-9368,Fee-based,10024
479,Little Park,1250 Broadway,New York,,877-353-3377,Fee-based,10001
480,Log-on Cafe,41 E. 30th St.,New York,,,Fee-based,10016
481,Mail Boxes Etc,1173 Second Ave,New York,http://www.mbe.com,,Fee-based,10021
481,Mail Boxes Etc,1173 Second Ave,New York,http://www.mbe.com,,Fee-based,10021
482,McDonalds,317 Broadway,New York,http://www.mcdonalds.com/wireless.html,212-577-9702,Fee-based,10007
483,McDonalds,160 Broadway,New York,http://www.mcdonalds.com/wireless.html,,Fee-based,10038
484,McDonalds,26 Bowery,New York,http://www.mcdonalds.com/wireless.html,212-406-0428,Fee-based,10013
485,McDonalds,262 Canal St,New York,http://www.mcdonalds.com/wireless.html,,Fee-based,10013
486,McDonalds,167 Chambers Street,New York,http://www.mcdonalds.com/wireless.html,212-608-2405,Fee-based,10007
487,McDonalds,6 Water Street,New York,http://www.mcdonalds.com/wireless.html,212-509-0920,Fee-based,10004
488,McDonalds,213 Madison Street,New York,http://www.mcdonalds.com/wireless.html,212-619-1848,Fee-based,10002
489,McDonalds,114 Delancey St,New York,http://www.mcdonalds.com/wireless.html,,Fee-based,10002
490,McDonalds,136 W 3rd St,New York,http://www.mcdonalds.com/wireless.html,,Fee-based,10012
491,McDonalds,724 Broadway,New York,http://www.mcdonalds.com/wireless.html,212-529-9660,Fee-based,10003
492,McDonalds,102-106 1st Ave,New York,http://www.mcdonalds.com/wireless.html,212-477-9171,Fee-based,10009
493,McDonalds,27 3rd Avenue,New York,http://www.mcdonalds.com/wireless.html,,Fee-based,10003
494,McDonalds,405 6th Ave,New York,http://www.mcdonalds.com/wireless.html,212-645-6662,Fee-based,10014
495,McDonalds,541 6th Avenue,New York,http://www.mcdonalds.com/wireless.html,,Fee-based,10011
496,McDonalds,154 West 14th Street,New York,http://www.mcdonalds.com/wireless.html,,Fee-based,10011
497,McDonalds,404 East 14th Street,New York,http://www.mcdonalds.com/wireless.html,212-598-0045,Fee-based,10009
498,McDonalds,39 Union Square West,New York,http://www.mcdonalds.com/wireless.html,212-645-9079,Fee-based,10003
499,McDonalds,686 6th Ave,New York,http://www.mcdonalds.com/wireless.html,,Fee-based,10010
500,McDonalds,336 East 23rd Street,New York,http://www.mcdonalds.com/wireless.html,212-674-9027,Fee-based,10010
501,McDonalds,809-811 6th Avenue,New York,http://www.mcdonalds.com/wireless.html,212-741-2367,Fee-based,10001
502,McDonalds,401 Park Avenue South,New York,http://www.mcdonalds.com/wireless.html,212-683-4919,Fee-based,10016
503,McDonalds,335 8th Avenue,New York,http://www.mcdonalds.com/wireless.html,212-243-9594,Fee-based,10001
999,Queens Library - South Jamaica,108-41 Guy R. Brewer Boulevard,Jamaica,http://www.queenslibrary.org/,718-739-4088,Free,11433
1000,Queens Library - South Ozone Park,128-16 Rockaway Boulevard,South Ozone Park,http://www.queenslibrary.org/,718-529-1660,Free,11420
1001,Queens Library - St. Albans,191-05 Linden Boulevard,St. Albans,http://www.queenslibrary.org/,718-528-8196,Free,11412
1002,Queens Library - Sunnyside,43-06 Greenpoint Avenue,Long Island City,http://www.queenslibrary.org/,718-784-3033,Free,11104
1003,Queens Library - Whitestone,151-10 14 Road,Whitestone,http://www.queenslibrary.org/,718-767-8010,Free,11357
150,St. George-Staten Island Ferry Terminal,1 Bay St,Staten Island,http://www.nyc.gov/html/dot/html/ferrybus/statfery.shtml,718 876-8441,Free,10301
153,St. John's University Loretto Memorial Library,300 Howard Avenue,Staten Island,http://www.stjohns.edu/academics/libraries/services/mobile_computing,718-390-4457,Free,10301
154,NYC Public Library - 67th Street Branch,328 East 67th Street,New York,http://www.nypl.org/branch/services/wifi.html,212-734-1717,Free,10021
155,NYC Public Library - 115th Street,203 West 115th Street,New York,http://www.nypl.org/branch/services/wifi.html,212-666-9393,Free,10026
156,NYC Public Library - 125th Street,224 East 125th Street,New York,http://www.nypl.org/branch/services/wifi.html,212-534-5050,Free,10035
157,NYC Public Library - Aguilar,174 East 110th Street,New York,http://www.nypl.org/branch/services/wifi.html,212-534-2930,Free,10029
158,NYC Public Library - Chatham Square,33 East Broadway,New York,http://www.nypl.org/branch/services/wifi.html,212-964-6598,Free,10002
159,NYC Public Library - Countee Cullen,104 West 136th Street,New York,http://www.nypl.org/branch/services/wifi.html,212-491-2070,Free,10030
161,NYC Public Library - Fort Washington,535 West 179th Street,New York,http://www.nypl.org/branch/services/wifi.html,212-927-3533,Free,10033
162,NYC Public Library - George Bruce,518 West 125th Street,New York,http://www.nypl.org/branch/services/wifi.html,212-662-9727,Free,10027
163,NYC Public Library - Hamilton Fish Park,415 East Houston Street,New York,http://www.nypl.org/branch/services/wifi.html,212-673-2290,Free,10002
164,NYC Public Library - Hamilton Grange,503 West 145th Street,New York,http://www.nypl.org/branch/services/wifi.html,212-926-2147,Free,10031
165,NYC Public Library - Harlem,9 West 124th Street,New York,http://www.nypl.org/branch/services/wifi.html,212-348-5620,Free,10027
166,NYC Public Library - Hudson Park,66 Leroy Street,New York,http://www.nypl.org/branch/services/wifi.html,212-243-6876,Free,10014
167,NYC Public Library - Inwood,4790 Broadway,New York,http://www.nypl.org/branch/services/wifi.html,212-942-2445,Free,10034
168,NYC Public Library - Jefferson Market,425 Avenue of Americas,New York,http://www.nypl.org/branch/services/wifi.html,212-243-4334,Free,10011
169,NYC Public Library - Macomb's Bridge,2650 Adam Clayton Powell Jr Blvd.,New York,http://www.nypl.org/branch/services/wifi.html,212-281-4900,Free,10039
170,NYC Public Library - Mid-Manhattan Library,455 Fifth Avenue,New York,http://www.nypl.org/branch/services/wifi.html,212-340-0833,Free,10016
171,NYC Public Library - New Amsterdam,9 Murray Street,New York,http://www.nypl.org/branch/services/wifi.html,212-732-8186,Free,10007
172,NYC Public Library - Ottendorfer,135 2nd Avenue,New York,http://www.nypl.org/branch/services/wifi.html,212-674-0947,Free,10003
173,NYC Public Library - Roosevelt Island,524 Main Street,New York,http://www.nypl.org/branch/services/wifi.html,212-308-6243,Free,10044
174,NYC Public Library - Schomburg Ctr for Research in Black Culture,515 Malcolm X Boulevard,New York,http://www.nypl.org/branch/services/wifi.html,212-491-2200,Free,10037
175,NYC Public Library - Seward Park,192 East Broadway,New York,http://www.nypl.org/branch/services/wifi.html,212-477-6770,Free,10002
176,NYC Public Library - Tompkins Square,331 East 10th Street,New York,http://www.nypl.org/branch/services/wifi.html,212-228-4747,Free,10009
177,NYC Public Library - Washington Heights,1000 Saint Nicholas Avenue,New York,http://www.nypl.org/branch/services/wifi.html,212-923-6054,Free,10032
178,Activebeauty,"Broadway, between Prince Street & Spring Street",New York,http://usatoday.jiwire.com/wi-fi-wireless-hotspot-New-York-New-York-NY-US-Active-Beauty-com-1083578.htm,917-206-4912,Free,10012
180,Bowling Green Park,Broadway and Whitehall,New York,http://www.downtownny.com/wireless.asp,,Free,10004
181,Bryant Park,6th Avenue & 42nd Street,New York,http://www.openwifispots.com/spot_free_wifi_wireless_hotspot_Bryant_Park_New_York_NY_6144.aspx,,Free,10018
182,Chelsea Market,75 Ninth Avenue,New York,http://www.chelseamarket.com/,,Free,10011
183,City Hall Park,corner Broadway and Murray Street,New York,http://www.downtownny.com/wireless.asp,,Free,10007
184,EVill Net,Avenue A & Avenue B 2nd & 10th Streets,New York,http://www.magicbike.net/evill/faq.html,,Free,10009
185,Groovy Greenwich Village Node,Covers cafes around the corner of  MacDougal St &,New York,http://auth.nycwireless.net/hotspots_map.php,,Free,10012
186,Location One,26 Greene Street,New York,,212-334-3347,Free,10013
187,Whitehall-Staten Island Ferry Terminal,South St. and State St.,New York,http://www.nyc.gov/html/dot/html/ferrybus/statfery.shtml,,Free,10004
188,Washington Market Park,corner Chambers St. and Greenwich St.,New York,http://www.openwifispots.com/spot_free_wifi_wireless_hotspot_Washington_Market_Park_New_York_NY_18297.aspx,,Free,10007
189,Winter Garden In the World Financial Center,West Side Highway between Vessey St. and Liberty S,New York,http://www.openwifinyc.com/classic/index.php,212-417-7000,Free,10280
190,South Street Seaport,South Street and Fulton Street,New York,http://www.downtownny.com/discover/wifi/,,Free,10038
191,Tompkins Square Park,500 E 9th St,New York,http://auth.nycwireless.net/hotspots_map.php,,Free,10009
192,'sNice,45 8th Ave,New York,http://www.openwifispots.com/spot_free_wifi_wireless_hotspot_sNice_New_York_NY_6740.aspx,212-645-0310,Free,10014
193,Ace Bar,531 East 5th Street,New York,http://maps.google.com/maps?hl=en&ie=UTF-8&q=ace+bar+nyc&fb=1&split=1&gl=us&view=text&latlng=16021670854050475894&dtab=1&ei=i5NkSoaCNYrCNb2l-OwL&oi=md_structdata&sa=X,212-979-8476,Free,10009
195,Apple Store Soho,103 Prince St,New York,http://www.apple.com,212-226-3126,Free,10012
196,ARK Communications,90 Stanton Street,New York,http://usatoday.jiwire.com/wi-fi-wireless-hotspot-New-York-New-York-NY-US-ARK-Comm,212-387-0040,Free,10002
197,Blue Spoon Coffee Company,76 Chambers St,New York,http://www.bluespooncoffee.com/,212-619-7230,Free,10007
198,Bowery Poetry Club,308 Bowery,New York,http://www.bowerypoetry.com/,212-619-7230,Free,10012
199,Cassava,474 6th Ave,New York,http://www.openwifispots.com/spot_free_wifi_wireless_hotspot_Cassava_Bubble_Tea_New_York_NY_6209.aspx,,Free,10011
200,Choux Factory,1685 First Avenue,New York,http://www.yelp.com/biz/choux-factory-new-york-city,212-627-4318,Free,10128
201,Circa Tabac,32 Watts Street,New York,http://www.nyu.edu/src/cityguide/cityinfo.html,212-803-5890,Free,10013
203,Cornelia Street Cafe,13 Cornelia Street,New York,http://www.corneliastreetcafe.com/home.asp,212-989-9319,Free,10014
204,The Downtown Uptown Café  Lounge,1626 Second Avenue,New York,http://www.openwifispots.com/spot_free_wifi_wireless_hotspot_Downtown_Uptown_Cafe_Lounge_New_York_NY_12093.aspx,212-327-1327,Free,10028
205,The Downtown Uptown Café  Lounge,41 Avenue B,New York,http://www.nyu.edu/src/cityguide/cityinfo.html,212-477-1021,Free,10009
206,Dunkin Donuts,166 2nd Ave,New York,http://www.openwifinyc.com/classic/a/Dunkin-Donuts-2nd-Ave-NY-10003,,Free,10003
207,Earth Matters,177 Ludlow St.,New York,http://www.openwifispots.com/spot_free_wifi_wireless_hotspot_Earth_Matters_New_York_NY_12189.aspx,212-475-4180,Free,10002
208,Esperanto Cafe,114 MacDougal Street,New York,http://www.nyu.edu/src/cityguide/cityinfo.html,212-475-5400,Free,10012
209,Grounded,28 Jane Street,New York,http://www.openwifispots.com/spot_free_wifi_wireless_hotspot_Grounded_New_York_NY_6424.aspx,212-647-0943,Free,10014
210,Hecht Viewing Garden,3 Av & 9 St,New York,http://evpcnyc.org/hecht/index.html,212-353-9063,Free,10003
212,Jeremy's Ale House,228 Front Street,New York,http://www.jeremysalehouse.com/,212-964-3537,Free,10038
213,Lalita Java Espresso Bar and Coffee Lounge,210 East Third St.,New York,http://www.openwifispots.com/spot_free_wifi_wireless_hotspot_Lalita_Java_Espresso_Bar_and_Coffee_Lounge_New_York_NY_14112.aspx,212-228-8448,Free,10009
214,NewsCafe on Broadway,11 Broadway,New York,http://usatoday.jiwire.com/wi-fi-wireless-hotspot-New-York-New-York-NY-US-NewsCafe-on-Broadway-1020785.htm,877-353-3377,Free,10004
215,Parish & Co Restaurant,202 Ninth Avenue,New York,http://www.nyu.edu/src/cityguide/cityinfo.html,,Free,10011
217,Soy Luck Club,115 Greenwich Avenue,New York,http://www.soyluckclub.com/,212-229-9191,Free,10014
218,St. Dymphna's,118 St. Mark's Place,New York,http://www.nyu.edu/src/cityguide/cityinfo.html,,Free,10009
219,Startegy Atrium and Cafe,115 E. 57th St.,New York,http://www.openwifispots.com/citylist_free_wifi_wireless_hotspot-New_York_NY.aspx,,Free,10022
220,Starwich Salads & Sandwiches,525 West 42nd Street,New York,http://www.nyu.edu/src/cityguide/cityinfo.html,212-736-9170,Free,10036
222,Starwich Salads & Sandwiches,1010 Sixth Avenue,New York,"http://maps.google.com/maps?f=q&source=s_q&view=text&hl=en&gl=us&q=Starwich+Salads+%26+Sandwiches&ie=UTF8&sll=40.733004,-73.989567&sspn=0.054551,0.037553&latlng=3880808307508616319&ei=bsJkSv7QPI2sMrnBsZUM&cd=1",212-302-7775,Free,10018
224,State of Grace Pub,1074 1st Ave,New York,http://usatoday.jiwire.com/wi-fi-wireless-hotspot-New-York-New-York-NY-US-State-of-Grace-Pub-1251393.htm,212-207-3858,Free,10022
225,Sunburst Espresso Bar,206 3rd Avenue,New York,http://www.yelp.com/biz/sunburst-espresso-bar-new-york,212-674-1702,Free,10003
226,Sympathy for the Kettle,109 St. Marks Place,New York,http://www.yelp.com/biz/sympathy-for-the-kettle-new-york-2,212-979-1650,Free,10009
227,Tea Spot,127 Macdougal St.,New York,http://www.openwifispots.com/spot_free_wifi_wireless_hotspot_Tea_Spot_New_York_NY_5991.aspx,212-505-0969,Free,10012
228,Tekserve,119 West 23rd St.,New York,http://www.openwifispots.com/spot_free_wifi_wireless_hotspot_Tekserve_Corp_New_York_NY_17267.aspx,212-929-3645,Free,10011
229,Veniero's Pasticceria & Caffe,342 East 11th Street,New York,http://www.openwifispots.com/spot_free_wifi_wireless_hotspot_Venieros_Pasticceria_and_Caffe_New_York_NY_18191.aspx,212-674-7070,Free,10003
230,Ziggies Cafe & Coffeehouse,1817 2nd Avenue,New York,http://www.nyu.edu/src/cityguide/cityinfo.html,212-289-0824,Free,10128
383,Barnes & Noble,1280 Lexington Ave,New York,http://www.barnesandnobleinc.com,,Free,10028
384,Barnes & Noble,240 East 86th Street,New York,http://www.barnesandnobleinc.com,,Free,10028
385,Barnes & Noble,2289 Broadway,New York,http://www.barnesandnobleinc.com,,Free,10024
386,Barnes & Noble,1972 Broadway,New York,http://www.barnesandnobleinc.com,,Free,10023
387,Barnes & Noble,33 East 17th Street,New York,http://www.barnesandnobleinc.com,,Free,10003
388,Barnes & Noble,160 E 54th Street,New York,http://www.barnesandnobleinc.com,,Free,10022
389,Barnes & Noble,675 Avenue Of The Americas,New York,http://www.barnesandnobleinc.com,,Free,10010
390,Barnes & Noble,555 5th Ave,New York,http://www.barnesandnobleinc.com,212-541-5614,Free,10017
391,Barnes & Noble,4 Astor Place,New York,http://www.barnesandnobleinc.com,,Free,10003
412,Cosi,2186 Broadway,New York,http://www.getcosi.com,212-595-5616,Free,10024
413,Cosi,60 East 56th Street,New York,http://www.getcosi.com,212-588-1225,Free,10022
415,Cosi,1633 Broadway,New York,http://www.getcosi.com,212-397-9838,Free,10019
416,Cosi,61 West 48th Street,New York,http://www.getcosi.com,212-265-2674,Free,10020
417,Cosi,257 Park Avenue,New York,http://www.getcosi.com,212-598-4070,Free,10017
418,Cosi,38 East 45th Street,New York,http://www.getcosi.com,212-370-0705,Free,10017
419,Cosi,685 3rd Avenue,New York,http://www.getcosi.com,212-697-8449,Free,10017
421,Cosi,498 7th Avenue,New York,http://www.getcosi.com,212-947-1005,Free,10017
424,Cosi,461 Park Avenue South,New York,http://www.getcosi.com,212-634-3467,Free,10016
425,Cosi,200 Vesey Street,New York,http://www.getcosi.com,212-571-2001,Free,10281
426,Cosi,55 Broad Street,New York,http://www.getcosi.com,212-344-5000,Free,10004
428,Cosi,841 Broadway,New York,http://www.getcosi.com,212-614-8544,Free,10003
429,Cosi,11 West 42nd Street,New York,http://www.getcosi.com,212-398-6662,Free,10036
775,Vietnam Veterans Memorial Plaza,55 Water Street,New York,http://www.downtownny.com/discover/wifi/,,Free,10004
776,Union Square Park,4th Avenue & Broadway,New York,http://www.unionsquarenyc.org/,,Free,10003
777,Rector Park,,New York,http://www.bpcparks.org/bpcp/parks/parks.php#rector,,Free,10280
779,Madison Square Park,Madison Avenue and 23rd Street,New York,http://www.nycgovparks.org/parks/madisonsquarepark,,Free,10010
783,Brooklyn Bridge Park,92 Plymouth Street,Brooklyn,http://auth.nycwireless.net/hotspots_map.php,,Free,11201
784,Apple Store,767 5th Avenue,New York,http://www.apple.com/retail/fifthavenue/,212-336-1440,Free,10022
787,Bway.net,568 Broadway,New York,http://auth.nycwireless.net/node_list.php,,Free,10012
789,Community Access,1363 Franklin Avenue,Bronx,http://auth.nycwireless.net/node_list.php,,Free,10456
790,Community Access,910 DeKalb Avenue,Brooklyn,http://auth.nycwireless.net/node_list.php,,Free,11221
791,Coogan's,600 West 169th Street,New York,,,Free,10032
792,DUMBO Wireless,155 Water St,Brooklyn,http://dumbonyc.com/2008/05/14/155water-greendesk/,718-210-3650,Free,11201
315,Laundry King,9814 4th Avenue,Brooklyn,,,Fee-based,11209
794,Fat Black Pussycat,130 W 3rd St,New York,http://www.thefatblackpussycat.com/gallery.html,,Free,10012
795,Golden Krust Bakery& Grill,408 8th Ave,New York,http://nymag.com/listings/restaurant/Golden-Krust-Bakery/,212-244-4049,Free,10001
800,Stuyvesant Cove Park,23rd Street and East River Drive,New York,http://www.openwifispots.com/spot_free_wifi_wireless_hotspot_Stuyvesant_Cove_Park_New_York_NY_24465.aspx,,Free,10002
801,Subway,2438 Jerome Ave,Bronx,http://auth.nycwireless.net/node_list.php,,Free,10468
819,Stone Street,Stone Street,New York,http://www.downtownny.com/discover/wifi/,,Free,10004
827,Chevys Fresh Mex Restaurant,102 North End Avenue,New York,http://www.chevysny.com,201-807-9090,Free,10282
828,Citywidetech.com,514 W 176th Street,New York,http://www.citywidetech.com,917-628-3131,Free,10033
831,Cosi,320 Park Avenue,New York,http://www.getcosi.com,212-754-6081,Free,10022
832,Equinox 102 - Broadway @ 19th,897 Broadway,New York,http://www.equinoxfitness.com/,212-780-9300,Free,10003
833,Equinox 106 - 2nd Ave @ 54th,250 East 54th Street,New York,http://www.equinoxfitness.com/,212-277-5400,Free,10022
834,Equinox 107 - Broadway @ 50th,1633 Broadway,New York,http://www.equinoxfitness.com/,212-541-7000,Free,10019
835,Equinox 109 - Lexington Ave @ 44th,420 Lexington Avenue,New York,http://www.equinoxfitness.com/,212-953-2499,Free,10017
836,Equinox 110 - Wall St @ Nassau,14 Wall Street,New York,http://www.equinoxfitness.com/,212-964-6688,Free,10005
837,Equinox 114 - Broadway @ Prince,568 Broadway,New York,http://www.equinoxfitness.com/,212-334-4631,Free,10012
851,Morans,103 Washington Street,New York,http://www.moransnyc.com,212-732-2020,Free,10006
860,SidewayZen,410 West 24th St,New York,http://sidewayzen.com,,Free,10011
861,Slainte Pub NYC,304 Bowery St,New York,http://www.slaintenyc.com,212-253-7030,Free,10012
504,McDonalds,"7th Ave & West 32nd St, Penn Station Lower Level",New York,http://www.mcdonalds.com/wireless.html,212-736-6157,Fee-based,10001
505,McDonalds,901 6th Avenue,New York,http://www.mcdonalds.com/wireless.html,212-268-4082,Fee-based,10001
506,McDonalds,341 5th Avenue,New York,http://www.mcdonalds.com/wireless.html,212-686-5342,Fee-based,10016
507,McDonalds,480 3rd Avenue,New York,http://www.mcdonalds.com/wireless.html,,Fee-based,10016
508,McDonalds,429 7th Avenue,New York,http://www.mcdonalds.com/wireless.html,212-736-7890,Fee-based,10001
509,McDonalds,490 8th Ave,New York,http://www.mcdonalds.com/wireless.html,212-947-0771,Fee-based,10001
510,McDonalds,972 6th Ave,New York,http://www.mcdonalds.com/wireless.html,,Fee-based,10018
511,McDonalds,427 10th Avenue,New York,http://www.mcdonalds.com/wireless.html,,Fee-based,10001
512,McDonalds,556 7th Ave,New York,http://www.mcdonalds.com/wireless.html,,Fee-based,10018
513,McDonalds,280 Madison Ave,New York,http://www.mcdonalds.com/wireless.html,,Fee-based,10016
514,McDonalds,220 West 42nd Street,New York,http://www.mcdonalds.com/wireless.html,212-840-6250,Fee-based,10036
515,McDonalds,688 8th Avenue,New York,http://www.mcdonalds.com/wireless.html,212-221-3863,Fee-based,10036
1004,Queens Library - Windsor Park,79-50 Bell Boulevard,Bayside,http://www.queenslibrary.org/,718-468-8300,Free,11364
1005,Queens Library - Woodhaven,85-41 Forest Parkway,Woodhaven,http://www.queenslibrary.org/,718-849-1010,Free,11421
1027,JFK International Airport - Jet Blue,Terminal 5,Jamaica,http://www.jetblue.com/about/whyyoulllike/about_WhyWireless.html,,Free,11430
1031,Barnes & Noble,290 Baychester Ave,Bronx,http://www.barnesandnobleinc.com,718-862-3945,Free,10475
1042,Barnes & Noble,2245 Richmond Avenue,Staten Island,http://www.barnesandnobleinc.com,718-982-6983,Free,10314
1070,Barnes & Noble,23-80 Bell Blvd.,Bayside,http://www.barnesandnobleinc.com,718-224-1083,Free,11360
1072,Wall Street Park,,New York,http://www.downtownny.com/?sid=49,,Free,10005
1073,60 Wall St. Atrium,60 Wall Street,New York,http://www.downtownny.com/?sid=49,,Free,10005
1079,City Line Diner,4350 Katonah Ave.,Bronx,http://www.openwifispots.com/spot_free_wifi_wireless_hotspot_City_Line_Diner_Bronx_NY_24466.aspx,718-231-4952,Free,10470
1080,Community Access - Avenue D,107 Avenue D,New York,,,Free,10009
1081,MediaNoche,161 East 106th Street,New York,http://www.medianoche.us/,,Free,10029
1086,Limeleaf,128 W 72 Street,New York,http://www.menupages.com/restaurants/lime-leaf/,212-501-7800,Free,10023
1088,Avalon Bowery Place,11 East 1st St,New York,http://development.inputnine.com/archive/avalon/boweryplace/site/,866-679-5715,Free,10003
1090,Cosi,53 East 8th Street,New York,http://www.getcosi.com,212-260-1507,Free,10003
1112,Lincoln Center - Damrosch Park,62nd Street near Amsterdam Avenue,New York,http://www.lincolncenter.org/load_screen.asp?screen=wifi,,Free,10023
1113,Lincoln Center - Josie Robertson Plaza,Columbus Avenue between 62nd and 65th Streets,New York,http://www.lincolncenter.org/load_screen.asp?screen=wifi,,Free,10023
1114,Lincoln Center - North Plaza,65th Street between Amsterdam Avenue and Columbus Avenue,New York,http://www.lincolncenter.org/load_screen.asp?screen=wifi,,Free,10023
1115,111 Wadsworth Ave,111 Wadsworth Ave,New York,http://v4.jiwire.com/wi-fi-wireless-hotspot-New-York-New-York-NY-US-111-Wadsworth-Avenue-17B-1284187.htm,212-568-3417,Free,10033
1117,404 W 54th Street,404 W 54th Street,New York,,,Free,10019
1120,Barnes & Noble,396 Avenue of the Americas,New York,http://www.barnesandnobleinc.com,212-674-8780,Free,10011
1131,Gizzi's Coffee,16 W. 8th Street,New York,http://www.openwifinyc.com/classic/a/Gizzis-Coffee-NY-10011,212-260-9700,Free,10011
1137,JFK International Airport - Continental Airlines Presidents Club,Terminal 3 near Gate 6,Jamaica,http://www.continental.com/web/en-US/content/travel/airport/lounge/detaillocations.aspx#New%20York,,Free,11430
1139,LaGuardia Airport - Continental Airlines Presidents Club,"Concourse A, third level",Flushing,http://www.continental.com/web/en-US/content/travel/airport/lounge/detaillocations.aspx#New%20York,718-505-7435,Free,11371
1141,LaGuardia Airport - Northwest WorldClubs Lounge,Behind the Northwest ticket counter,Flushing,http://www.continental.com/web/en-US/content/travel/airport/lounge/detaillocations.aspx#New%20York,718-476-7196,Free,11371
1175,Wagner Park,Battery  Place & 1 Place,New York,http://www.nycwireless.net/press/wagner-park-gets-hotter-with-wi-fi/,,Free,10280
233,McDonald's,1101 E Tremont Ave,Bronx,http://www.mcdonalds.com/wireless.html,,Fee-based,10460
234,McDonald's,4174 White Plains Rd,Bronx,http://www.mcdonalds.com/wireless.html,,Fee-based,10466
235,McDonald's,513 E 138th St,Bronx,http://www.mcdonalds.com/wireless.html,,Fee-based,10454
236,McDonald's,2170 White Plains Rd,Bronx,http://www.mcdonalds.com/wireless.html,,Fee-based,10462
237,McDonald's,1201 E 233rd St,Bronx,http://www.mcdonalds.com/wireless.html,,Fee-based,10466
238,McDonald's,2357 Arthur Ave,Bronx,http://www.mcdonalds.com/wireless.html,,Fee-based,10458
239,McDonald's,1600 Boston Rd,Bronx,http://www.mcdonalds.com/wireless.html,,Fee-based,10460
240,McDonald's,3279 3rd Avenue,Bronx,http://www.mcdonalds.com/wireless.html,,Fee-based,10456
241,McDonald's,86 E 167th St,Bronx,http://www.mcdonalds.com/wireless.html,,Fee-based,10452
242,McDonald's,101 E 170th St,Bronx,http://www.mcdonalds.com/wireless.html,,Fee-based,10452
243,McDonald's,5765 Broadway,Bronx,http://www.mcdonalds.com/wireless.html,,Fee-based,10463
244,McDonald's,2065 Jerome Ave,Bronx,http://www.mcdonalds.com/wireless.html,,Fee-based,10453
245,McDonald's,1515 Williamsbridge Rd,Bronx,http://www.mcdonalds.com/wireless.html,,Fee-based,10461
246,McDonald's,1982 Westchester Ave,Bronx,http://www.mcdonalds.com/wireless.html,,Fee-based,10462
247,McDonald's,3440-42 Jerome Ave,Bronx,http://www.mcdonalds.com/wireless.html,,Fee-based,10467
248,McDonald's,982 Southern Blvd,Bronx,http://www.mcdonalds.com/wireless.html,,Fee-based,10459
249,McDonald's,1600 Bruckner Blvd,Bronx,http://www.mcdonalds.com/wireless.html,,Fee-based,10473
250,McDonald's,51-67 E 161st St,Bronx,http://www.mcdonalds.com/wireless.html,,Fee-based,10451
251,McDonald's,212 E 161st Street,Bronx,http://www.mcdonalds.com/wireless.html,,Fee-based,10451
252,McDonald's,597-99 Grand Concourse,Bronx,http://www.mcdonalds.com/wireless.html,,Fee-based,10451
253,McDonald's,1745 University Ave,Bronx,http://www.mcdonalds.com/wireless.html,,Fee-based,10453
254,McDonald's,2630 Jerome Ave,Bronx,http://www.mcdonalds.com/wireless.html,,Fee-based,10468
255,McDonald's,85 Bruckner Blvd,Bronx,http://www.mcdonalds.com/wireless.html,,Fee-based,10454
256,McDonald's,1317 Castlehill Avenue,Bronx,http://www.mcdonalds.com/wireless.html,,Fee-based,10462
257,McDonald's,1212 E Gun Hill Road,Bronx,http://www.mcdonalds.com/wireless.html,,Fee-based,10469
258,McDonald's,300 E 204th St,Bronx,http://www.mcdonalds.com/wireless.html,,Fee-based,10467
259,McDonald's,2516 White Plains Rd,Bronx,http://www.mcdonalds.com/wireless.html,,Fee-based,10467
260,McDonald's,1865 Bruckner Blvd,Bronx,http://www.mcdonalds.com/wireless.html,,Fee-based,10472
261,Starbucks,1385 Metropolitan Avenue,Bronx,http://www.starbucks.com,,Fee-based,10462
262,Starbucks,50 W. 225th Street,Bronx,http://www.starbucks.com,,Fee-based,10463
263,T-Mobile,2883 3rd Ave,Bronx,http://www.t-mobile.com/,,Fee-based,10455
264,T-Mobile,314 East Fordham Road,Bronx,http://www.t-mobile.com/,,Fee-based,10458
265,The UPS Store,318a East 149th St,Bronx,http://www.theupsstore.com/,,Fee-based,10451
560,Pinnacle Pizza,2937 Broadway,New York,,212-662-1000,Fee-based,10025
266,McDonald's,50 Jamaica Ave,Brooklyn,http://www.mcdonalds.com/wireless.html,541-389-8334,Fee-based,11207
267,McDonald's,5121 5th Ave,Brooklyn,http://www.mcdonalds.com/wireless.html,,Fee-based,11220
268,McDonald's,275-81 Fourth Ave,Brooklyn,http://www.mcdonalds.com/wireless.html,,Fee-based,11215
269,McDonald's,1983 86th St,Brooklyn,http://www.mcdonalds.com/wireless.html,,Fee-based,11214
270,McDonald's,741 Grand St,Brooklyn,http://www.mcdonalds.com/wireless.html,,Fee-based,11211
271,McDonald's,1883 Atlantic Avenue,Brooklyn,http://www.mcdonalds.com/wireless.html,,Fee-based,11233
272,McDonald's,35-40 Nostrand Ave,Brooklyn,http://www.mcdonalds.com/wireless.html,718-934-9539,Fee-based,11206
273,McDonald's,2154 Nostrand Ave,Brooklyn,http://www.mcdonalds.com/wireless.html,,Fee-based,11210
274,McDonald's,2411 86th St,Brooklyn,http://www.mcdonalds.com/wireless.html,,Fee-based,11214
275,McDonald's,968 4th Ave,Brooklyn,http://www.mcdonalds.com/wireless.html,,Fee-based,11232
276,McDonald's,943 Flatbush Avenue,Brooklyn,http://www.mcdonalds.com/wireless.html,718-703-3248,Fee-based,11226
277,McDonald's,1607 Kings Highway,Brooklyn,http://www.mcdonalds.com/wireless.html,,Fee-based,11229
278,McDonald's,819 Pennsylvania Ave,Brooklyn,http://www.mcdonalds.com/wireless.html,,Fee-based,11207
279,McDonald's,289 9th St,Brooklyn,http://www.mcdonalds.com/wireless.html,,Fee-based,11215
280,McDonald's,700 Broadway,Brooklyn,http://www.mcdonalds.com/wireless.html,,Fee-based,11206
281,McDonald's,2800 Atlantic Ave,Brooklyn,http://www.mcdonalds.com/wireless.html,,Fee-based,11207
282,McDonald's,606 Neptune Ave,Brooklyn,http://www.mcdonalds.com/wireless.html,,Fee-based,11224
283,McDonald's,1531 Fulton Street,Brooklyn,http://www.mcdonalds.com/wireless.html,,Fee-based,11216
284,McDonald's,57 Empire Blvd,Brooklyn,http://www.mcdonalds.com/wireless.html,,Fee-based,11225
285,McDonald's,430 86th St.,Brooklyn,http://www.mcdonalds.com/wireless.html,,Fee-based,11209
286,McDonald's,880 Coney Island Ave,Brooklyn,http://www.mcdonalds.com/wireless.html,,Fee-based,11218
287,McDonald's,7602 Flatlands Avenue,Brooklyn,http://www.mcdonalds.com/wireless.html,,Fee-based,11236
288,McDonald's,2848 Church Avenue,Brooklyn,http://www.mcdonalds.com/wireless.html,718-940-8082,Fee-based,11226
289,McDonald's,7124 3rd Ave.,Brooklyn,http://www.mcdonalds.com/wireless.html,,Fee-based,11209
290,McDonald's,428 Knickerbocker Ave,Brooklyn,http://www.mcdonalds.com/wireless.html,,Fee-based,11237
291,McDonald's,267 Broadway,Brooklyn,http://www.mcdonalds.com/wireless.html,,Fee-based,11211
292,McDonald's,5407 Kings Plz,Brooklyn,http://www.mcdonalds.com/wireless.html,,Fee-based,11234
293,McDonald's,1101 Rutland Avenue,Brooklyn,http://www.mcdonalds.com/wireless.html,,Fee-based,11212
294,McDonald's,652 Meeker Ave,Brooklyn,http://www.mcdonalds.com/wireless.html,,Fee-based,11222
295,New York Perks,193 Smith Street,Brooklyn,,,Fee-based,11201
296,Ozzie's Coffee -  7th Ave.,57 7th Avenue,Brooklyn,,718-398-6695,Fee-based,11217
297,Ozzies Coffee and Tea,249 5th Avenue,Brooklyn,,718-768-6868,Fee-based,11215
298,Park Plaza Diner,220 Cadman Plaza West,Brooklyn,,,Fee-based,11201
299,Uprising Cafe - 3rd Ave,7025 3rd Ave,Brooklyn,,,Fee-based,11209
300,Uprising Cafe - 9 street,328 7th Ave,Brooklyn,,,Fee-based,11215
301,Kelloggs Diner,518 Metropolitan Ave,Brooklyn,,,Fee-based,11211
303,Starbucks,6423 18th Avenue,Brooklyn,http://www.starbucks.com,718-234-7160,Fee-based,11204
304,Starbucks,7419 3rd Avenue,Brooklyn,http://www.starbucks.com,718-836-3519,Fee-based,11209
305,Starbucks,9202 Third Avenue,Brooklyn,http://www.starbucks.com,718-492-7395,Fee-based,11209
306,Starbucks,607 Brighton Beach Av,Brooklyn,http://www.starbucks.com,718-934-3211,Fee-based,11235
307,Starbucks,167 Court Street,Brooklyn,http://www.starbucks.com,718-222-9729,Fee-based,11201
308,Starbucks,50 Court Street,Brooklyn,http://www.starbucks.com,718-855-0369,Fee-based,11201
309,Starbucks,33 Hillel Place,Brooklyn,http://www.starbucks.com,718-338-2489,Fee-based,11210
310,Starbucks,164 7th Avenue,Brooklyn,http://www.starbucks.com,718-369-1213,Fee-based,11215
311,The Internet Garage,218 Bedford Avenue,Brooklyn,,,Fee-based,11211
312,Power Talk,700 Grand Street,Brooklyn,,,Fee-based,11211
313,Purity Diner,43 Underill Ave.,Brooklyn,http://www.s-ilink.net,212-937-8902,Fee-based,11238
314,Goal Post,1752 Bath Ave.,Brooklyn,,,Fee-based,11214
316,McDonald's,106-15 71ST AVE,Forest Hills,http://www.mcdonalds.com/wireless.html,,Fee-based,11375
317,McDonald's,98-01 METROPOLITAN AVE,Forest Hills,http://www.mcdonalds.com/wireless.html,,Fee-based,11375
318,McDonald's,72-69 KISSENA BLVD,Flushing,http://www.mcdonalds.com/wireless.html,,Fee-based,11367
319,McDonald's,87-88 PARSON BLVD,Jamaica,http://www.mcdonalds.com/wireless.html,,Fee-based,11432
320,McDonald's,159-01 JAMAICA AVENUE,Jamaica,http://www.mcdonalds.com/wireless.html,,Fee-based,11432
321,McDonald's,95-05A 63RD DR,Rego Park,http://www.mcdonalds.com/wireless.html,,Fee-based,11374
322,McDonald's,91-19 QUEEN BLVD,Elmhurst,http://www.mcdonalds.com/wireless.html,,Fee-based,11373
323,McDonald's,95-05 57TH AVE,Corona,http://www.mcdonalds.com/wireless.html,,Fee-based,11373
324,McDonald's,119-05 LIBERTY AVE,Richmond Hills,http://www.mcdonalds.com/wireless.html,,Fee-based,11419
325,McDonald's,40-12 NATIONAL ST,Corona,http://www.mcdonalds.com/wireless.html,,Fee-based,11368
326,McDonald's,181-25 HILLSIDE AVENUE,Jamaica,http://www.mcdonalds.com/wireless.html,,Fee-based,11432
327,McDonald's,80-03 QUEENS BLVD,Elmhurst,http://www.mcdonalds.com/wireless.html,,Fee-based,11373
328,McDonald's,114-01 SUTPHIN BLVD,Jamaica,http://www.mcdonalds.com/wireless.html,,Fee-based,11436
329,McDonald's,37-59 82ND ST,Jackson Heights,http://www.mcdonalds.com/wireless.html,,Fee-based,11372
330,McDonald's,75-11 ROOSEVELT AVE,Jackson Heights,http://www.mcdonalds.com/wireless.html,,Fee-based,11372
331,McDonald's,37-19 JUNCTION BLVD,Corona,http://www.mcdonalds.com/wireless.html,,Fee-based,11368
332,McDonald's,155-14 ROOSEVELT AVE,Flushing,http://www.mcdonalds.com/wireless.html,,Fee-based,11354
333,McDonald's,54-29 METROPOLITAN AVE,Ridgewood,http://www.mcdonalds.com/wireless.html,,Fee-based,11385
334,McDonald's,59-60 55TH ROAD,Maspeth,http://www.mcdonalds.com/wireless.html,,Fee-based,11378
335,McDonald's,3001 STRATTON ST,Flushing,http://www.mcdonalds.com/wireless.html,,Fee-based,11354
336,McDonald's,203-11 NORTHERN BLVD,Bayside,http://www.mcdonalds.com/wireless.html,,Fee-based,11361
337,McDonald's,88-05 ASTORIA BLVD,E Elmhurst,http://www.mcdonalds.com/wireless.html,,Fee-based,11369
338,McDonald's,159-40 CROSS BAY BLVD,Howard Beach,http://www.mcdonalds.com/wireless.html,,Fee-based,11414
339,McDonald's,51-35 NORTHERN BLVD,Woodside,http://www.mcdonalds.com/wireless.html,,Fee-based,11377
340,McDonald's,54-04 MYRTLE AVE,Ridgewood,http://www.mcdonalds.com/wireless.html,,Fee-based,11385
342,McDonald's,45-06 GREENPOINT AVE,Sun,http://www.mcdonalds.com/wireless.html,,Fee-based,11104
343,McDonald's,88-14 SPRINGFIELD BLVD,Hillside,http://www.mcdonalds.com/wireless.html,,Fee-based,11427
344,McDonald's,31-67 STEINWAY ST,Astoria,http://www.mcdonalds.com/wireless.html,,Fee-based,11103
1,NYC Public Library - Baychester Branch,2049 Asch Loop North,Bronx,http://www.nypl.org/branch/services/wifi.html,718-379-6700,Free,10475
2,NYC Public Library - Castel Hill Branch,947 Castle Hill Avenue,Bronx,http://www.nypl.org/branch/services/wifi.html,718-824-3838,Free,10473
3,NYC Public Library - City Island Branch,320 City Island Avenue,Bronx,http://www.nypl.org/branch/services/wifi.html,718-885-1703,Free,10464
4,NYC Public Library - Clason's Point Branch,1215 Morrison Avenue,Bronx,http://www.nypl.org/branch/services/wifi.html,718-842-1235,Free,10472
5,NYC Public Library - Eastchester Branch,1385 East Gun Hill Road,Bronx,http://www.nypl.org/branch/services/wifi.html,718-653-3292,Free,10469
6,NYC Public Library - Edenwald Branch,1255 East 233rd Street,Bronx,http://www.nypl.org/branch/services/wifi.html,718-798-3355,Free,10466
8,NYC Public Library - Francis Martin Branch,2150 University Avenue,Bronx,http://www.nypl.org/branch/services/wifi.html,718-295-5287,Free,10453
9,NYC Public Library - Hunt's Point Branch,877 Southern Boulevard,Bronx,http://www.nypl.org/branch/services/wifi.html,718-617-0338,Free,10459
10,NYC Public Library - Jerome Park Branch,118 Eames Place,Bronx,http://www.nypl.org/branch/services/wifi.html,718-549-5200,Free,10468
11,NYC Public Library - Kingsbridge Branch,280 West 231st Street,Bronx,http://www.nypl.org/branch/services/wifi.html,718-548-5656,Free,10463
12,NYC Public Library - Pelham Bay Branch,3060 Middletown Road,Bronx,http://www.nypl.org/branch/services/wifi.html,718-792-6744,Free,10461
13,NYC Public Library - Riverdale Branch,5540 Mosholu Avenue,Bronx,http://www.nypl.org/branch/services/wifi.html,718-549-1212,Free,10471
14,NYC Public Library -Soundview Branch,660 Soundview Avenue,Bronx,http://www.nypl.org/branch/services/wifi.html,718-589-0880,Free,10473
15,NYC Public Library - Spuyten Duyvil Branch,650 W. 235th St.,Bronx,http://www.nypl.org/branch/services/wifi.html,718-796-1202,Free,10463
16,NYC Public Library - Throg's Neck Branch,3025 Cross Bronx Expressway Extension,Bronx,http://www.nypl.org/branch/services/wifi.html,718-792-2612,Free,10465
17,NYC Public Library - Van Cortlandt,3874 Sedgwick Avenue,Bronx,http://www.nypl.org/branch/services/wifi.html,718-543-5150,Free,10463
18,NYC Public Library - Van Nest Branch,2147 Barnes Avenue,Bronx,http://www.nypl.org/branch/services/wifi.html,718-829-5864,Free,10462
19,NYC Public Library - Wakefield Branch,4100 Lowerre Place,Bronx,http://www.nypl.org/branch/services/wifi.html,718-652-4663,Free,10466
20,NYC Public Library - West Farms Branch,2085 Honeywell Avenue,Bronx,http://www.nypl.org/branch/services/wifi.html,718-367-5376,Free,10460
21,NYC Public Library - Westchester Square,2521 Glebe Avenue,Bronx,http://www.nypl.org/branch/services/wifi.html,718-863-0436,Free,10461
22,NYC Public Library - Woodlawn Heights,4355 Katonah Avenue,Bronx,http://www.nypl.org/branch/services/wifi.html,718-519-9627,Free,10470
23,The Bruckner Bar & Grill,1 Bruckner Blvd,Bronx,http://www.openwifispots.com/spot_free_wifi_wireless_hotspot_Bruckner_Bar_and_Grill_New_York_NY_23205.aspx,718-665-2001,Free,10454
24,Longwood Art Gallery Hostos Community College Campus,450 Grand Concourse,Bronx,,718-518-6728,Free,10451
25,Brooklyn Public Library - Arlington,203 Arlington Ave.,Brooklyn,http://www.brooklynpubliclibrary.org/,718-277-6105,Free,11207
26,Brooklyn Public Library - Bay Ridge,7223 Ridge Blvd.,Brooklyn,http://www.brooklynpubliclibrary.org/,718-748-5709,Free,11209
27,Brooklyn Public Library - Bedford,496 Franklin Avenue,Brooklyn,http://www.brooklynpubliclibrary.org/,718-623-0012,Free,11238
29,Brooklyn Public Library - Borough Park,1265 43rd St.,Brooklyn,http://www.brooklynpubliclibrary.org/,718-437-4085,Free,11219
30,Brooklyn Public Library - Brighton Beach,16 Brighton First Rd.,Brooklyn,http://www.brooklynpubliclibrary.org/,718-946-2917,Free,11235
31,Brooklyn Public Library - Brooklyn Heights,280 Cadman Plaza West,Brooklyn,http://www.brooklynpubliclibrary.org/,718-623-7100,Free,11201
32,Brooklyn Public Library - Brower Park,725 St. Marks Ave.,Brooklyn,http://www.brooklynpubliclibrary.org/,718-773-7208,Free,11216
33,Brooklyn Public Library - Brownsville,61 Glenmore Ave.,Brooklyn,http://www.brooklynpubliclibrary.org/,718-498-9721,Free,11212
34,Brooklyn Public Library - Bushwick,340 Bushwick Ave.,Brooklyn,http://www.brooklynpubliclibrary.org/,718-602-1348,Free,11206
36,Brooklyn Public Library - Canarsie,1580 Rockaway Pkwy.,Brooklyn,http://www.brooklynpubliclibrary.org/,718-257-6547,Free,11236
37,Brooklyn Public Library - Carroll Gardens,396 Clinton St.,Brooklyn,http://www.brooklynpubliclibrary.org/,718-596-6972,Free,11231
39,Brooklyn Public Library - Central Library,Grand Army Plaza,Brooklyn,http://www.brooklynpubliclibrary.org/,718-230-2100,Free,11238
40,Brooklyn Public Library - Clarendon,2035 Nostrand Ave.,Brooklyn,http://www.brooklynpubliclibrary.org/,718-421-1159,Free,11210
41,Brooklyn Public Library - Clinton Hill,380 Washington Ave.,Brooklyn,http://www.brooklynpubliclibrary.org/,718-398-8713,Free,11238
42,Brooklyn Public Library - Coney Island,1901 Mermaid Ave.,Brooklyn,http://www.brooklynpubliclibrary.org/,718-265-3220,Free,11224
44,Brooklyn Public Library - Cortelyou,1305 Cortelyou Rd.,Brooklyn,http://www.brooklynpubliclibrary.org/,718-693-7763,Free,11226
45,Brooklyn Public Library - Crown Heights Branch,560 New York Ave.,Brooklyn,http://www.brooklynpubliclibrary.org/,718-773-1180,Free,11225
46,Brooklyn Public Library - Cypress Hills,1197 Sutter Ave.,Brooklyn,http://www.brooklynpubliclibrary.org/,718-277-6004,Free,11208
47,Brooklyn Public Library - DeKalb,790 Bushwick Ave.,Brooklyn,http://www.brooklynpubliclibrary.org/,718-455-3898,Free,11221
48,Brooklyn Public Library - Dyker,8202 13th Ave.,Brooklyn,http://www.brooklynpubliclibrary.org/,718-748-6261,Free,11228
49,Brooklyn Public Library - East Flatbush,9612 Church Ave.,Brooklyn,http://www.brooklynpubliclibrary.org/,718-922-0927,Free,11212
50,Brooklyn Public Library - Eastern Parkway,1044 Eastern Pkwy.,Brooklyn,http://www.brooklynpubliclibrary.org/,718-953-4225,Free,11213
53,Brooklyn Public Library - Flatbush,22 Linden Blvd.,Brooklyn,http://www.brooklynpubliclibrary.org/,718-856-0813,Free,11226
54,Brooklyn Public Library - Flatlands,2065 Flatbush Ave.,Brooklyn,http://www.brooklynpubliclibrary.org/,718-253-4409,Free,11234
55,Brooklyn Public Library - Fort Hamilton,9424 Fourth Ave.,Brooklyn,http://www.brooklynpubliclibrary.org/,718-748-6919,Free,11209
56,Brooklyn Public Library - Gerritsen Beach Branch,2808 Gerritsen Ave.,Brooklyn,http://www.brooklynpubliclibrary.org/,718-368-1435,Free,11229
57,Brooklyn Public Library - Gravesend,303 Ave. X,Brooklyn,http://www.brooklynpubliclibrary.org/,718-382-5792,Free,11223
58,Brooklyn Public Library - Greenpoint,107 Norman Ave.,Brooklyn,http://www.brooklynpubliclibrary.org/,718-349-8504,Free,11222
59,Brooklyn Public Library - Highlawn,1664 W. 13th St.,Brooklyn,http://www.brooklynpubliclibrary.org/,718-234-7208,Free,11223
561,Pizza Villa,131 7th Ave S,New York,,212-627-7548,Fee-based,10014
60,Brooklyn Public Library - Homecrest,2525 Coney Island Ave.,Brooklyn,http://www.brooklynpubliclibrary.org/,718-382-5924,Free,11223
61,Brooklyn Public Library - Jamaica Bay,9727 Seaview Ave.,Brooklyn,http://www.brooklynpubliclibrary.org/,718-241-3571,Free,11236
62,Brooklyn Public Library - Kensington,410 Ditmas Ave.,Brooklyn,http://www.brooklynpubliclibrary.org/,718-435-9431,Free,11218
63,Brooklyn Public Library - Kings Bay,3650 Nostrand Ave.,Brooklyn,http://www.brooklynpubliclibrary.org/,718-368-1709,Free,11229
64,Brooklyn Public Library - Kings Highway,2115 Ocean Ave.,Brooklyn,http://www.brooklynpubliclibrary.org/,718-375-3037,Free,11229
65,Brooklyn Public Library - Leonard,81 Devoe St.,Brooklyn,http://www.brooklynpubliclibrary.org/,718-486-3365,Free,11211
66,Brooklyn Public Library - Macon,361 Lewis Ave.,Brooklyn,http://www.brooklynpubliclibrary.org/,718-573-5606,Free,11233
67,Brooklyn Public Library - Mapleton,1702 60th St,Brooklyn,http://www.brooklynpubliclibrary.org/,718-256-2117,Free,11204
68,Brooklyn Public Library - Marcy,617 DeKalb Ave.,Brooklyn,http://www.brooklynpubliclibrary.org/,718-935-0032,Free,11216
69,Brooklyn Public Library - McKinley Park,6802 Fort Hamilton Pkwy,Brooklyn,http://www.brooklynpubliclibrary.org/,718-748-8001,Free,11219
70,Brooklyn Public Library - Midwood,975 East 16th St,Brooklyn,http://www.brooklynpubliclibrary.org/,718-252-0967,Free,11230
71,Brooklyn Public Library - Mill Basin,2385 Ralph Ave,Brooklyn,http://www.brooklynpubliclibrary.org/,718-241-3973,Free,11234
72,Brooklyn Public Library - New Lots,665 New Lots Ave.,Brooklyn,http://www.brooklynpubliclibrary.org/,718-649-0311,Free,11207
73,Brooklyn Public Library - New Utrecht,1743 86th St.,Brooklyn,http://www.brooklynpubliclibrary.org/,718-236-4086,Free,11214
74,Brooklyn Public Library - Pacific,25 Fourth Ave.,Brooklyn,http://www.brooklynpubliclibrary.org/,718-638-1531,Free,11217
75,Brooklyn Public Library - Paerdegat,850 E. 59th St.,Brooklyn,http://www.brooklynpubliclibrary.org/,718-241-3994,Free,11234
76,Brooklyn Public Library - Park Slope,431 6th Ave.,Brooklyn,http://www.brooklynpubliclibrary.org/,718-832-1853,Free,11215
77,Brooklyn Public Library - Red Hook,7 Wolcott St.,Brooklyn,http://www.brooklynpubliclibrary.org/,718-935-0203,Free,11231
78,Brooklyn Public Library - Rugby,1000 Utica Ave.,Brooklyn,http://www.brooklynpubliclibrary.org/,718-566-0054,Free,11203
79,Brooklyn Public Library - Ryder,5902- 23rd Ave.,Brooklyn,http://www.brooklynpubliclibrary.org/,718-331-2962,Free,11204
80,Brooklyn Public Library - Saratoga,"Thomas S. Boyland St. at ""Macon St.""",Brooklyn,http://www.brooklynpubliclibrary.org/,718-573-5224,Free,11233
81,Brooklyn Public Library - Sheepshead Bay,2636 E.14th St.,Brooklyn,http://www.brooklynpubliclibrary.org/,718-368-1815,Free,11235
82,Brooklyn Public Library - Spring Creek Branch,12143 Flatlands Ave.,Brooklyn,http://www.brooklynpubliclibrary.org/,718-257-6571,Free,11207
83,Brooklyn Public Library - Stone Avenue,581 Mother Gaston Boulevard,Brooklyn,http://www.brooklynpubliclibrary.org/,718-485-8347,Free,11212
84,Brooklyn Public Library - Sunset Park,5108 4th Avenue,Brooklyn,http://www.brooklynpubliclibrary.org/,718-567-2806,Free,11220
85,Brooklyn Public Library - Ulmer Park,2602 Bath Ave,Brooklyn,http://www.brooklynpubliclibrary.org/,718-265-3443,Free,11214
86,Brooklyn Public Library - Walt Whitman,93 Saint Edwards St.,Brooklyn,http://www.brooklynpubliclibrary.org/,718-935-0244,Free,11205
87,Brooklyn Public Library - Washington Irving,360 Irving Ave.,Brooklyn,http://www.brooklynpubliclibrary.org/,718-628-8378,Free,11237
88,Brooklyn Public Library - Williamsburgh,240 Division Ave.,Brooklyn,http://www.brooklynpubliclibrary.org/,718-302-3485,Free,11211
89,Brooklyn Public Library - Windsor Terrace,160 E. 5th St.,Brooklyn,http://www.brooklynpubliclibrary.org/,718-686-9707,Free,11218
90,Brooklyn Museum of Art,200 Eastern Parkway,Brooklyn,http://www.brooklynmuseum.org/visit/wireless.php,,Free,11238
91,Bristens Cafe,525 DeKalb Avenue,Brooklyn,http://www.yelp.com/biz/bristens-eatery-brooklyn,646-393-9422,Free,11205
92,Cafe Sutra,639A 5th Ave,Brooklyn,http://www.openwifispots.com/spot_free_wifi_wireless_hotspot_Cafe_Sutra_New_York_NY_5519.aspx,718-499-0279,Free,11215
93,MishMash,1103 Kings Highway,Brooklyn,http://www.mishmashgourmet.com,718-375-5100,Free,11229
94,Naidre's,384 Seventh Avenue,Brooklyn,http://www.naidres.com/,718-965-7585,Free,11215
95,Polytechnic University Bern Dibner Library of Science & Technology,Five Metrotech Center,Brooklyn,http://www.poly.edu/research/library,718-260-3600,Free,11201
96,St. Francis College McGarry Library,180 Remsen Street,Brooklyn,http://library.stfranciscollege.edu/,718-489-5201,Free,11201
97,Kitty Kiernans Bar,9715 third avenue,Brooklyn,http://www.kittykiernans.com/,718-921-0217,Free,11209
98,Atlas Café,116 Havemeyer St.,Brooklyn,http://www.yelp.com/biz/atlas-cafe-brooklyn,718-782-7470,Free,11211
99,Bread Stuy,401 Lewis Ave,Brooklyn,http://breadstuy.com/main.html,718-771-0633,Free,11233
101,Healthy Nibbles,305 Flatbush Ave,Brooklyn,http://hotspotr.com/spot/1456,718-636-5835,Free,11217
102,Postmark Cafe,326 6th street,Brooklyn,http://www.yelp.com/biz/postmark-cafe-brooklyn,718-768-2613,Free,11215
103,Tillies,248 DeKalb Avenue,Brooklyn,http://tilliesofbrooklyn.com/,718-783-8691,Free,11205
104,Brooklyn Lyceum coffee shop,225 4th Ave,Brooklyn,http://www.superpages.com/cities/mtg/wifi-1258829/,718 857-4816,Free,11215
105,Gorilla Coffee,97 Fifth Ave,Brooklyn,http://hotspotr.com/spot,718-230-3244,Free,11217
106,Heights Coffee,335 Flatbush Ave,Brooklyn,http://www.heightscoffee.com/,718-638-1936,Free,11217
107,Outpost Lounge,1014 Fulton St.,Brooklyn,http://www.outaboutbrooklyn.com/outpost-lounge/,718-636-1260,Free,11238
108,Tea Lounge,837 Union Street,Brooklyn,http://www.yelp.com/biz/tea-lounge-brooklyn,718-768-4966,Free,11215
109,Prospect Perk Cafe,183 Sterling Pl,Brooklyn,http://www.yelp.com/biz/prospect-perk-cafe-brooklyn,718-783-7375,Free,11238
111,Mama B's,351 Graham Avenue,Brooklyn,http://newyork.timeout.com/restaurants/williamsburg/2644/mama-bs-cafe-and-juice-bar,718-599-8859,Free,11211
113,Supercore,305 Bedford Avenue,Brooklyn,http://www.yelp.com/biz/supercore-brooklyn,718-302-1629,Free,11211
114,The Greenpoint Coffee House,195 Franklin Street,Brooklyn,http://www.yelp.com/biz/greenpoint-coffee-house-brooklyn-2,718-349-6635,Free,11222
116,The Archive,49 Bogart St,Brooklyn,http://www.yelp.com/biz/the-archive-cafe-brooklyn,718-381-1944,Free,11206
117,Lucky Cat,245 Grand Street,Brooklyn,http://www.yelp.com/biz/the-lucky-cat-brooklyn,718-782-0437,Free,11211
120,Southside Caffe,229 S 4th Street,Brooklyn,http://www.blockmagazine.com/block_stock_barrel.php?title=lstronggcaught_in_the_wireless_webl_stro&more=1&c=1&tb=1&pb=1,718-388-4642,Free,11211
121,Queens Library - Astoria,14-01 Astoria Boulevard,Long Island City,http://www.queenslibrary.org/,718-278-2220,Free,11102
122,Queens Library - Broadway,40-20 Broadway,Long Island City,http://www.queenslibrary.org/,718-721-2462,Free,11103
123,Queens Library - Central Library  (ALC),89-11 Merrick Boulevard,Jamaica,http://www.queenslibrary.org/,718-990-0700,Free,11432
124,Queens Library - Corona,38-23 104 Street,Corona,http://www.queenslibrary.org/,718-426-2844,Free,11368
125,Queens Library - Court Square,25-01 Jackson Avenue,Long Island City,http://www.queenslibrary.org/,718-937-2790,Free,11101
126,Queens Library - East Elmhurst,95-06 Astoria Boulevard,East Elmhurst,http://www.queenslibrary.org/,718-424-2619,Free,11369
127,Queens Library - Jackson Heights,35-51 81 Street,Jackson Heights,http://www.queenslibrary.org/,718-899-2500,Free,11372
128,Queens Library - Langston Hughes,100-01 Northern Boulevard,Corona,http://www.queenslibrary.org/,718-651-1100,Free,11368
131,Queens Library - Steinway (ALC),21-45 31 Street,Long Island City,http://www.queenslibrary.org/,718-728-1965,Free,11105
132,Queens Library - Woodside,54-22 Skillman Avenue,Woodside,http://www.queenslibrary.org/,718-429-4700,Free,11377
133,All Friend Cafe,7805 164 Street,Queens,,,Free,11366
135,Bagels And Bake,40-15 Bell Blvd.,Bayside,http://local.yahoo.com/info-11375980-bagels-and-bake-under-the-green-canopy-bayside,718-229-6132,Free,11361
136,Modus Vivendi,72-07 Austin Street,Forest Hills,http://www.openwifispots.com/spot_free_wifi_wireless_hotspot_Modus_Vivendi_Tea_and_Cafe_Glry_Forest_HillsQueens_NY_14949.aspx,718-997-0500,Free,11375
137,Queens City Bakery & Cafe,2405 Jackson Ave,Long Island City,http://www.openwifispots.com/spot_free_wifi_wireless_hotspot_Queens_City_Bakery_Cafe_New_York_NY_22669.aspx,718-361-5700,Free,11101
138,Ten63 Café,1063 Jackson Avenue,Long Island City,http://www.openwifispots.com/spot_free_wifi_wireless_hotspot_Ten63_Cafe_Queens_NY_17273.aspx,718-482-7679,Free,11101
139,Communitea,4702 Vernon Blvd,Long Island City,http://www.yelp.com/biz/communitea-long-island-city,718-729-7708,Free,11101
140,Cafe Bar,3290 36th St,Astoria,http://www.yelp.com/biz/cafe-bar-astoria,718-204-5273,Free,11106
141,Munch Cafe' & Grill,7160 Yellowstone Blvd,Forest Hills,http://www.openwifispots.com/spot_free_wifi_wireless_hotspot_Munch_Cafe_and_Grill_Forest_HillsQueens_NY_15107.aspx,718-544-0075,Free,11375
142,Astroval Travel,103-16 Roosevelt Ave,Corona,http://v4.jiwire.com/wi-fi-wireless-hotspot-Corona-New-York-NY-US-Astroval-Travel-1086848.htm,718-446-3912,Free,11368
143,Speedimpex USA,35-02 48th Ave,Long Island City,http://v4.jiwire.com/wi-fi-wireless-hotspot-Long-Island-City-New-York-NY-US-Speedimpex-USA-1133526.htm,,Free,11101
144,NYC Public Library - Great Kills,56 Giffords Lane,Staten Island,http://www.nypl.org/branch/services/wifi.html,718-984-6670,Free,10308
145,NYC Public Library - New Dorp Branch,309 New Dorp Lane,Staten Island,http://www.nypl.org/branch/services/wifi.html,718-351-2977,Free,10306
146,NYC Public Library - Port Richmond,75 Bennett Street,Staten Island,http://www.nypl.org/branch/services/wifi.html,718-442-0158,Free,10302
147,NYC Public Library - West New Brighton Branch,976 Castleton Avenue,Staten Island,http://www.nypl.org/branch/services/wifi.html,718-442-1416,Free,10310
148,NYC Public Library - Dongan Hills Branch,1617 Richmond Road,Staten Island,http://www.nypl.org/branch/services/wifi.html,718-351-1444,Free,10304
149,NYC Public Library -Todt Hill-Westerleigh Branch,2550 Victory Boulevard,Staten Island,http://www.nypl.org/branch/services/wifi.html,718-494-1642,Free,10314
516,McDonalds,1188 6th Avenue,New York,http://www.mcdonalds.com/wireless.html,212-944-2720,Fee-based,10036
517,McDonalds,1560 Broadway,New York,http://www.mcdonalds.com/wireless.html,212-921-8900,Fee-based,10036
518,McDonalds,14 East 47th Street,New York,http://www.mcdonalds.com/wireless.html,212-697-8148,Fee-based,10017
519,McDonalds,West 46th St & 12th Avenue Pier 86,New York,http://www.mcdonalds.com/wireless.html,212-245-6458,Fee-based,10036
520,McDonalds,735 9th Ave,New York,http://www.mcdonalds.com/wireless.html,,Fee-based,10019
521,McDonalds,1651 Broadway,New York,http://www.mcdonalds.com/wireless.html,212-586-5530,Fee-based,10019
522,McDonalds,824 3rd Avenue,New York,http://www.mcdonalds.com/wireless.html,,Fee-based,10022
523,McDonalds,946 8th Avenue,New York,http://www.mcdonalds.com/wireless.html,,Fee-based,10019
524,McDonalds,47 West 57th Street,New York,http://www.mcdonalds.com/wireless.html,212-753-4290,Fee-based,10019
525,McDonalds,966 3rd Avenue,New York,http://www.mcdonalds.com/wireless.html,212-753-5360,Fee-based,10022
526,McDonalds,2049 Broadway,New York,http://www.mcdonalds.com/wireless.html,212-724-0435,Fee-based,10023
527,McDonalds,1286 1st Avenue,New York,http://www.mcdonalds.com/wireless.html,212-249-3551,Fee-based,10021
528,McDonalds,1499 3rd Ave,New York,http://www.mcdonalds.com/wireless.html,,Fee-based,10028
530,McDonalds,638 Columbus Ave,New York,http://www.mcdonalds.com/wireless.html,,Fee-based,10024
531,McDonalds,1871 2nd Avenue,New York,http://www.mcdonalds.com/wireless.html,,Fee-based,10029
532,McDonalds,2549 Broadway,New York,http://www.mcdonalds.com/wireless.html,212-864-8138,Fee-based,10025
533,McDonalds,1872 3rd Ave,New York,http://www.mcdonalds.com/wireless.html,212-828-4071,Fee-based,10029
534,McDonalds,125th St & Lexington Ave,New York,http://www.mcdonalds.com/wireless.html,646-672-1381,Fee-based,10035
535,McDonalds,215 West 125th Street,New York,http://www.mcdonalds.com/wireless.html,212-864-2201,Fee-based,10027
536,McDonalds,354 W 125th St,New York,http://www.mcdonalds.com/wireless.html,212-864-2124,Fee-based,10027
537,McDonalds,600 West 125th St,New York,http://www.mcdonalds.com/wireless.html,212-662-2965,Fee-based,10027
538,McDonalds,444 Lenox Avenue,New York,http://www.mcdonalds.com/wireless.html,,Fee-based,10037
539,McDonalds,52 Fulton Street,New York,http://www.mcdonalds.com/wireless.html,212-528-2930,Fee-based,10038
540,McDonalds,2379 Adam Clayton Powell Jr Blvd,New York,http://www.mcdonalds.com/wireless.html,,Fee-based,10030
541,McDonalds,3549 Broadway,New York,http://www.mcdonalds.com/wireless.html,212-281-5330,Fee-based,10031
542,McDonalds,3410 Broadway,New York,http://www.mcdonalds.com/wireless.html,,Fee-based,10031
543,McDonalds,2142 3rd Ave,New York,http://www.mcdonalds.com/wireless.html,,Fee-based,10035
544,McDonalds,2271 Broadway,New York,http://www.mcdonalds.com/wireless.html,212-579-1644,Fee-based,10024
545,McDonalds,4259 Broadway,New York,http://www.mcdonalds.com/wireless.html,,Fee-based,10033
546,McDonalds,839 Westchester Avenue,New York,http://www.mcdonalds.com/wireless.html,,Fee-based,10455
547,McDonalds,208 Dyckman St,New York,http://www.mcdonalds.com/wireless.html,,Fee-based,10040
549,McDonalds,608 West 207th Street,New York,http://www.mcdonalds.com/wireless.html,917-544-9496,Fee-based,10034
550,Mickey Mantle's,42 Central Park South,New York,,,Fee-based,10019
550,Mickey Mantle's,42 Central Park South,New York,,,Fee-based,10019
551,Morton Williams Cafe,255 West 57th Street,New York,,212-586-7750,Fee-based,10019
552,New World Grill,329 West 49th Street,New York,,,Fee-based,10019
553,New York Benjamin,125 East 50th Street,New York,,,Fee-based,10022
554,New York Gift Mart,7 W 34th Street,New York,,,Fee-based,10001
555,New York State Supreme Court,80 Center St.,New York,,,Fee-based,10013
556,New York State Supreme Court,60 Center St.,New York,,,Fee-based,10007
557,News Cafe,107 University Place,New York,,212-353-1246,Fee-based,10003
558,Nintendo World Store,10 Rockefeller Plaza,New York,,425-861-2265,Fee-based,10020
559,Park Avenue Plaza,50 East 52nd Street,New York,,212-755-5807,Fee-based,10022
562,Practicing Law Institute,810 7th Avenue,New York,,,Fee-based,10019
563,Public Telephone,1790 Broadway,New York,,212-965-8800,Fee-based,10019
564,Public Telephone,900 3rd Avenue,New York,,212-965-8800,Fee-based,10022
565,Public Telephone,173 West 48th Street,New York,,,Fee-based,10036
566,Public Telephone,300 West 48th Street,New York,,,Fee-based,10036
567,Public Telephone,2 West 46th Street,New York,,,Fee-based,10036
568,Public Telephone,1 West 45th Street,New York,,,Fee-based,10036
569,Public Telephone,74 West 45th Street,New York,,,Fee-based,10036
570,Public Telephone,707 8th Ave,New York,,212-965-8800,Fee-based,10036
571,Public Telephone,2 West 43 Street,New York,,,Fee-based,10036
572,Public Telephone,650 3rd Avenue,New York,,,Fee-based,10017
573,Public Telephone,201 East 39th Street,New York,,,Fee-based,10016
574,Public Telephone,55 3rd Avenue,New York,,212-965-8800,Fee-based,10003
575,Related-1 Carnegie Hill,96th & 3rd Aveneue,New York,,,Fee-based,10128
576,Riverside West Waterfront Park,475 Riverside Drive,New York,,,Fee-based,10027
577,S&K,123 William Street,New York,,,Fee-based,10038
578,Saurin Parke Cafe,301 West 110th Street,New York,,212-222-0683,Fee-based,10026
579,Shogun One,325 Broadway,New York,,212-233-1390,Fee-based,10007
580,Smilers,719 7th Ave.,New York,,212-704-0850,Fee-based,10036
581,Soho Farms,307 W Broadway,New York,,212-226-3030,Fee-based,10013
582,Sony Plaza,550 Madison Ave,New York,,,Fee-based,10022
583,Space Untitled,133 Greene Street,New York,,,Fee-based,10012
584,Starbucks,1290 Third Avenue,New York,http://www.starbucks.com,212-772-6903,Fee-based,10021
585,Starbucks,1117 Lexington Ave.,New York,http://www.starbucks.com,212-517-8476,Fee-based,10021
586,Starbucks,1128 Third Avenue,New York,http://www.starbucks.com,212-472-6535,Fee-based,10021
587,Starbucks,1449 Second Avenue,New York,http://www.starbucks.com,212-472-0653,Fee-based,10021
588,Starbucks,1445 First Avenue,New York,http://www.starbucks.com,212-472-7784,Fee-based,10021
589,Starbucks,1559 2nd Avenue,New York,http://www.starbucks.com,212-472-7972,Fee-based,10028
590,Starbucks,267-275 Columbus Ave,New York,http://www.starbucks.com,212-579-7834,Fee-based,10023
591,Starbucks,152 - 154 Columbus Avenue,New York,http://www.starbucks.com,212-721-0470,Fee-based,10023
592,Starbucks,338 Columbus Avenue,New York,http://www.starbucks.com,646-505-1106,Fee-based,10023
593,Starbucks,116 E. 57th Street,New York,http://www.starbucks.com,212-486-1632,Fee-based,10022
594,Starbucks,725 5th Avenue,New York,http://www.starbucks.com,212-421-7154,Fee-based,10022
595,Starbucks,142 W. 57th Street,New York,http://www.starbucks.com,646-710-1905,Fee-based,10019
596,Starbucks,1488 Third Avenue,New York,http://www.starbucks.com,212-744-7458,Fee-based,10028
597,Starbucks,1380 Sixth Avenue,New York,http://www.starbucks.com,212-977-1382,Fee-based,10019
598,Starbucks,120 W. 56th Street,New York,http://www.starbucks.com,212-262-9273,Fee-based,10019
599,Starbucks,1841 Broadway,New York,http://www.starbucks.com,212-307-0162,Fee-based,10023
600,Starbucks,4 Columbus Circle,New York,http://www.starbucks.com,212-265-0658,Fee-based,10019
601,Starbucks,120 EAST 87TH ST,New York,http://www.starbucks.com,212-426-2580,Fee-based,10128
603,Starbucks,2045 Broadway,New York,http://www.starbucks.com,212-496-1551,Fee-based,10023
604,Starbucks,1102 1st Ave,New York,http://www.starbucks.com,212-688-9118,Fee-based,10021
605,Starbucks,870 7th Avenue,New York,http://www.starbucks.com,212-586-2142,Fee-based,10019
606,Starbucks,444 Columbus Avenue,New York,http://www.starbucks.com,212-769-2296,Fee-based,10024
607,Starbucks,1100 Avenue of the Americas,New York,http://www.starbucks.com,212-398-4508,Fee-based,10036
608,Starbucks,1345 6th Ave,New York,http://www.starbucks.com,212-265-8610,Fee-based,10019
609,Starbucks,322 West 57th Street,New York,http://www.starbucks.com,212-399-0714,Fee-based,10019
610,Starbucks,2 Columbus Avenue,New York,http://www.starbucks.com,212-489-6757,Fee-based,10019
611,Starbucks,1320 Avenue of the Americas,New York,http://www.starbucks.com,212-969-9066,Fee-based,10019
612,Starbucks,1710 Broadway,New York,http://www.starbucks.com,212-245-0761,Fee-based,10019
613,Starbucks,2140 Broadway,New York,http://www.starbucks.com,212-580-1141,Fee-based,10023
614,Starbucks,1631 1st Ave,New York,http://www.starbucks.com,212-737-6534,Fee-based,10028
615,Starbucks,599 Lexington Ave,New York,http://www.starbucks.com,212-754-1864,Fee-based,10022
616,Starbucks,156 W 52nd St,New York,http://www.starbucks.com,212-581-6410,Fee-based,10019
617,Starbucks,1290 6th Ave,New York,http://www.starbucks.com,212-977-4861,Fee-based,10019
618,Starbucks,45 E. 51st Street,New York,http://www.starbucks.com,212-688-8834,Fee-based,10022
619,Starbucks,540 Columbus Avenue,New York,http://www.starbucks.com,212-496-4139,Fee-based,10024
620,Starbucks,1656 Broadway,New York,http://www.starbucks.com,212-397-7124,Fee-based,10019
621,Starbucks,2252 Broadway,New York,http://www.starbucks.com,212-721-4157,Fee-based,10024
622,Starbucks,400 East 54th Street,New York,http://www.starbucks.com,212-688-8951,Fee-based,10022
623,Starbucks,560 Lexington Avenue,New York,http://www.starbucks.com,212-751-2937,Fee-based,10022
624,Starbucks,871 8th Avenue,New York,http://www.starbucks.com,212-246-7699,Fee-based,10019
625,Starbucks,30 Rockefeller Plaza,New York,http://www.starbucks.com,212-586-0911,Fee-based,10020
626,Starbucks,1642 Third Avenue,New York,http://www.starbucks.com,212-360-0425,Fee-based,10128
627,Starbucks,750 Seventh Avenue,New York,http://www.starbucks.com,212-974-0032,Fee-based,10019
628,Starbucks,280 Park Avenue,New York,http://www.starbucks.com,212-573-9869,Fee-based,10017
629,Starbucks,400 East 90th Street,New York,http://www.starbucks.com,212-987-0891,Fee-based,10128
630,Starbucks,943 Second Avenue,New York,http://www.starbucks.com,212-715-0752,Fee-based,10022
631,Starbucks,1500 Broadway,New York,http://www.starbucks.com,212-221-7515,Fee-based,10036
632,Starbucks,825 Eighth Avenue,New York,http://www.starbucks.com,212-307-7173,Fee-based,10019
633,Starbucks,575 Fifth Avenue,New York,http://www.starbucks.com,212-490-3189,Fee-based,10017
634,Starbucks,1585 Broadway,New York,http://www.starbucks.com,212-541-7515,Fee-based,10036
635,Starbucks,630 Lexington Ave,New York,http://www.starbucks.com,212-521-8075,Fee-based,10022
636,Starbucks,325 W 49th St,New York,http://www.starbucks.com,212-765-2205,Fee-based,10019
637,Starbucks,1185 Sixth Avenue,New York,http://www.starbucks.com,212-382-0352,Fee-based,10036
638,Starbucks,757 Third Avenue,New York,http://www.starbucks.com,212-715-9884,Fee-based,10017
639,Starbucks,1378 Madison Avenue,New York,http://www.starbucks.com,212-534-7537,Fee-based,10128
640,Starbucks,770 Eighth Ave,New York,http://www.starbucks.com,212-830-9001,Fee-based,10036
641,Starbucks,1166 Avenue of the Americas,New York,http://www.starbucks.com,212-354-3730,Fee-based,10036
642,Starbucks,545 Fifth Ave.,New York,http://www.starbucks.com,212-687-1026,Fee-based,10017
643,Starbucks,450 Lexington Avenue,New York,http://www.starbucks.com,212-682-5139,Fee-based,10017
644,Starbucks,1530 Broadway,New York,http://www.starbucks.com,212-391-2079,Fee-based,10036
645,Starbucks,682 9th Avenue,New York,http://www.starbucks.com,212-397-2288,Fee-based,10036
646,Starbucks,335 Madison Avenue,New York,http://www.starbucks.com,212-370-3510,Fee-based,10017
647,Starbucks,330 Madison Ave,New York,http://www.starbucks.com,212-682-1880,Fee-based,10017
648,Starbucks,125 Park Ave,New York,http://www.starbucks.com,212-557-2718,Fee-based,10017
649,Starbucks,685 Third Avenue,New York,http://www.starbucks.com,646-865-1250,Fee-based,10017
650,Starbucks,2498 Broadway,New York,http://www.starbucks.com,917-441-1643,Fee-based,10025
651,Starbucks,7800 Grand Central Station,New York,http://www.starbucks.com,212-370-4161,Fee-based,10017
652,Starbucks,3 Park Avenue,New York,http://www.starbucks.com,212-725-9469,Fee-based,10016
653,Starbucks,684 Eighth Avenue,New York,http://www.starbucks.com,212-398-9702,Fee-based,10036
654,Starbucks,150 E. 42nd Street,New York,http://www.starbucks.com,212-949-4122,Fee-based,10017
655,Starbucks,295 Madison Avenue,New York,http://www.starbucks.com,212-922-9126,Fee-based,10017
656,Starbucks,251 West 42nd Street,New York,http://www.starbucks.com,212-398-1982,Fee-based,10036
657,Starbucks,2521 Broadway,New York,http://www.starbucks.com,212-316-0374,Fee-based,10025
658,Starbucks,639 3rd Avenue,New York,http://www.starbucks.com,212-973-1376,Fee-based,10017
659,Starbucks,360 Lexington Avenue,New York,http://www.starbucks.com,212-953-1662,Fee-based,10017
660,Starbucks,593 Ninth Ave,New York,http://www.starbucks.com,212-594-7846,Fee-based,10036
661,Starbucks,90 Park Ave,New York,http://www.starbucks.com,212-661-5489,Fee-based,10016
662,Starbucks,2600 Broadway,New York,http://www.starbucks.com,212-316-9401,Fee-based,10025
663,Starbucks,525 7th Avenue,New York,http://www.starbucks.com,212-869-5273,Fee-based,10018
664,Starbucks,600 Eighth Ave,New York,http://www.starbucks.com,212-997-7337,Fee-based,10018
665,Starbucks,1372 Broadway,New York,http://www.starbucks.com,212-921-0827,Fee-based,10018
666,Starbucks,555 W. 42ND STREET,New York,http://www.starbucks.com,212-563-0671,Fee-based,10036
667,Starbucks,400 Madison Avenue,New York,http://www.starbucks.com,212-319-1873,Fee-based,10017
668,Starbucks,200 Madison Avenue,New York,http://www.starbucks.com,212-684-6873,Fee-based,10016
669,Starbucks,1460 Broadway,New York,http://www.starbucks.com,212-869-0191,Fee-based,10036
1211,Panera Bread,38-01 35th Avenue,Long Island City,http://www.openwifispots.com/spot_free_wifi_wireless_hotspot_Panera_Bread_Long_Island_City_NY_87229.aspx,,Free,11101
1212,Apple Store,401 W 14th Street,New York,http://www.apple.com/retail/west14thstreet/,,Free,10014
1213,Apple Store,2655 Richmond Avenue,Staten Island,http://www.apple.com/retail/statenisland/,,Free,10314
1214,Tavern on Nostrand,813 Nostrand Avenue,Brooklyn,http://www.wififreespot.com/ny.html,,Free,11225
1215,American Trash,1471 1st Avenue,New York,http://www.nycamericantrash.com/trash_wii.html,,Free,10075
1216,Boqueria,53 West 19th Street,New York,http://www.wififreespot.com/ny.html,,Free,10011
1217,Bowery Bar,40 E 4th Street,New York,http://www.openwifispots.com/spot_free_wifi_wireless_hotspot_Bowery_Bar_New_York_NY_5589.aspx,,Free,10003
1218,B Cup Café,212 Avenue B,New York,http://www.openwifispots.com/spot_free_wifi_wireless_hotspot_B_Cup_Cafe_New_York_NY_5590.aspx,,Free,10009
1219,V Bar,225 Sullivan St,New York,http://www.openwifispots.com/spot_free_wifi_wireless_hotspot_V_Bar_New_York_NY_5521.aspx,,Free,10012
1220,Dunkin Donuts,899 Main Street,New York,http://www.openwifispots.com/spot_free_wifi_wireless_hotspot_Dunkin_Donuts_Cortland_Manor_NY_12141.aspx,,Free,10044
1221,Dunikn Donuts,215 1st Avenue,New York,http://www.openwifispots.com/spot_free_wifi_wireless_hotspot_Dunkin_Donuts_New_York_NY_12150.aspx,,Free,10003
1222,Duncan Donuts,170 2nd Avenue,New York,http://www.openwifispots.com/spot_free_wifi_wireless_hotspot_Duncan_Donuts_New_York_NY_6342.aspx,,Free,10003
1223,Plaza at 7 World Trade Center,Vesey Street & Greenwich Street,New York,http://www.downtownny.com/discover/wifi/,,Free,10048
1224,Tea Lounge,254 Court Street,Brooklyn,http://www.wififreespot.com/ny.html,,Free,11231
1225,Penn Station - Waiting Room,7th Avenue & 33rd Street,New York,http://www.mta.info/lirr/News/2008/PennWireless.htm,,Free,10119
1226,British Memorial Garden,Hanover Square,New York,http://www.britishmemorialgarden.org/intro.html,,Free,10004
1227,Central Park Charles a Dana Discovery Center,36 W 110th Street,New York,http://www.openwifispots.com/spot_free_wifi_wireless_hotspot_Central_Park_Charles_a_Dana_Discovery_Center_New_York_NY_24668.aspx,,Free,10026
1228,Paletra,62-65 Saunders Strret,Rego Park,http://v4.jiwire.com/wi-fi-wireless-hotspot-Rego-Park-New-York-NY-US-Paletra-1144899.htm,,Free,11374
1229,Café One,1619 Amsterdam Avenue,New York,http://www.openwifinyc.com/classic/a/Cafe-One-NY-10031,,Free,10031
1230,Net Café,246 East 14th Street,New York,http://www.ncafeny.com/,,Free,10003
1231,Ost Café,441East 12th Street,New York,http://www.openwifinyc.com/classic/a/Ost-Cafe-NY-10009,,Free,10009
1232,Tasty Café,2062 Broadway,New York,http://www.openwifinyc.com/classic/a/Tasty-Cafe-NY-10023,,Free,10023
1233,Beach Café,1362 2nd Avenue,New York,http://www.openwifinyc.com/classic/a/Beach-Cafe-NY-10021,,Free,10021
1234,Gigi Cage,2067 Broadway,New York,http://www.openwifinyc.com/classic/a/Gigi-Cafe-NY-10023,,Free,10023
1235,Pecan,130 Franklin Street,New York,http://www.openwifinyc.com/classic/a/Pecan-NY-10013,,Free,10013
1236,Andrews Coffee Shop,116 John Street,New York,http://www.openwifinyc.com/classic/a/Andrews-Coffee-Shop-NY-10038,,Free,10038
1237,Antique Café,55 West 26th Street,New York,http://www.openwifinyc.com/classic/a/Antique-Cafe-NY-10010,,Free,10010
1238,Battery Gardens,Battery Park,New York,http://www.openwifinyc.com/classic/a/Battery-Gardens-NY-10004,,Free,10004
1239,East West Café,78 5th Avenue,New York,http://www.openwifinyc.com/classic/a/East-West-Cafe-NY-10011,,Free,10011
1240,Bravo Café,52 Broadway,New York,http://www.openwifinyc.com/classic/a/Bravo-Cafe-NY-10004,,Free,10004
1241,Condesa Café,183 West 10th Street,New York,http://www.openwifinyc.com/classic/a/Condesa-Cafe-NY-10014,,Free,10014
1242,Silo Café,31 East 32nd Street,New York,,,Free,10016
1243,Gotham Coffee House,1298 2nd Avenue,New York,,,Free,10065
1244,Brama Café,157 2nd Avenue,New York,,,Free,10003
1245,Ditch Plains,29 Bedford Street,New York,,,Free,10014
1246,Peace and Love,378 1/2 Greenwich Street,New York,,,Free,10013
1247,Merchants Gate,Central Park - SW Corner,New York,,,Free,10000
1248,Balducci's Mezzanine Café,81 8th Avenue,New York,http://www.openwifinyc.com/classic/a/Balduccis-Mezzanine-Cafe-NY-10011,,Free,10011
1249,Kaffe 1668,275 Greenwich Street,New York,http://www.openwifinyc.com/classic/a/Kaffe-1668-NY-10007,,Free,10007
1250,Giana Espresso Bar,1584 1st Avenue,New York,http://www.openwifinyc.com/classic/a/Giana-Espresso-Bar-NY-10028,,Free,10028
1251,Time Café Astoria,44-18 Broadway,Astoria,http://www.timecafeny.com/index.php?page=wifi,,Free,11103
1252,Bagels & Cakes,42-14 Bell Boulevard,Bayside,http://www.wififreespot.com/ny.html,,Free,11361
1254,Coffee Den,144 Union Street,Brooklyn,http://www.wififreespot.com/ny.html,,Free,11231
1255,Crest Café,463 Union Avenue,Brooklyn,http://www.wififreespot.com/ny.html,,Free,11211
1256,Café Addis,435 W 125 Street,New York,http://www.openwifispots.com/spot_free_wifi_wireless_hotspot_CAFE_ADDIS_New_York_NY_31195.aspx,,Free,10027
1257,Cafecito,185 Avenue C,New York,http://www.openwifispots.com/spot_free_wifi_wireless_hotspot_Cafecito_New_York_NY_6185.aspx,,Free,10009
1258,Café Soleil,37-14 Astoria Blvd,Astoria,http://www.openwifispots.com/spot_free_wifi_wireless_hotspot_Cafe_Soleil_Queens_NY_32472.aspx,,Free,11103
1259,Coffe & Tea Market  Café,422 Forest Avenue,Staten Island,http://www.wififreespot.com/ny.html,,Free,10301
1260,Lindenwood diner,2870 Linden Boulevard,Brooklyn,http://www.lindenwooddiner.com/reviews.html,,Free,11208
1261,Saje Café,710 Franklin Avenue,Brooklyn,http://www.wififreespot.com/ny.html,,Free,11238
1262,The Mark Bar,1025 Manhattan Avenue,Brooklyn,http://www.wififreespot.com/ny.html,,Free,11222
1263,Alor Café,2110 Richmond Road,Staten Island,http://www.wififreespot.com/ny.html,,Free,10306
1264,Cake Shop,152 Ludlow Street,New York,http://www.openwifispots.com/spot_free_wifi_wireless_hotspot_Cake_Shop_New_York_NY_5454.aspx,,Free,10002
1265,Flight 151,151 8th Avenue,New York,http://www.openwifispots.com/spot_free_wifi_wireless_hotspot_Flight_151_New_York_NY_6377.aspx,,Free,10011
1266,Galaxy Global Eatery,15 Irving Place,New York,http://www.openwifispots.com/spot_free_wifi_wireless_hotspot_Galaxy_Global_Eatery_New_York_NY_5758.aspx,,Free,10003
1267,Greenwich Treehouse,46 Greenwich Avenue,New York,http://www.openwifispots.com/spot_free_wifi_wireless_hotspot_Greenwich_Treehouse_New_York_NY_5770.aspx,,Free,10011
1268,Gramstand,214 Avenue A,New York,http://www.openwifispots.com/spot_free_wifi_wireless_hotspot_Gramstand_New_York_NY_5480.aspx,,Free,10009
1269,Gimme Coffee,495 Lorimer Street,Brooklyn,http://www.wififreespot.com/ny.html,,Free,11211
1270,Grille de Paris Restaurant,904 Kings Hwy,Brooklyn,http://www.wififreespot.com/ny.html,,Free,11223
1271,Housing Works Bookstore Café,126 Crosby Street,New York,http://www.openwifispots.com/spot_free_wifi_wireless_hotspot_Housing_Works_Bookstore_Cafe_New_York_NY_5783.aspx,,Free,10012
1272,Kdog & dunebuggy Coffee,43 Lincoln Road,Brooklyn,http://www.wififreespot.com/ny.html,,Free,11225
1273,Le Gamin,556 Vanderbilt Avenue,Brooklyn,http://www.wififreespot.com/ny.html,,Free,11238
1274,Lucky Jack's,129 Orchard Street,New York,http://www.openwifispots.com/spot_free_wifi_wireless_hotspot_Lucky_Jacks_New_York_NY_5510.aspx,,Free,10002
1275,88 Orchard,88 Orchard Street,New York,http://www.openwifispots.com/citylist_free_wifi_wireless_hotspot-New_York_NY.aspx,,Free,10002
1276,Pop Diner,86-02 Queens Boulevard,Elmhurst,http://www.popdiner.com/,,Free,11373
1277,Plaza Lounge,29-20 30th Avenue,Astoria,http://www.wififreespot.com/ny.html,,Free,11102
1278,Rapture Café & Books,200 Avenue A,New York,http://www.openwifispots.com/spot_free_wifi_wireless_hotspot_Rapture_Cafe_and_Books_New_York_NY_19752.aspx,,Free,10009
1279,Tisserie,857 Broadway,New York,http://www.openwifispots.com/spot_free_wifi_wireless_hotspot_Tisserie_New_York_NY_6842.aspx,,Free,10003
1280,Best Value Electronics,6 West 14th Street,New York,http://www.wififreespot.com/ny.html,,Free,10011
1281,The Little Owl,90 Bedford Street,New York,http://www.thelittleowlnyc.com/,,Free,10014
1282,la Fusta Restaurant,80-32 Baxter Avenue,Elmhurst,http://www.lafustarestaurant.com,,Free,11373
1283,Sanford Restaurant,30-13 Broadway,Astoria,http://www.openwifispots.com/spot_free_wifi_wireless_hotspot_Sanford_Restaurant_New_York_NY_19754.aspx,,Free,11106
1284,Columbia University,114 th - 120th Streets,New York,http://www.openwifispots.com/spot_free_wifi_wireless_hotspot_Columbia_University_New_York_NY_5679.aspx,,Free,10023
1285,Business Coffeshop,623 Grand Street,Brooklyn,http://www.openwifispots.com/spot_free_wifi_wireless_hotspot_Business_Brooklyn_NY_32212.aspx,,Free,11211
1286,Potion Café,248 McKibbin Street,Brooklyn,http://www.openwifispots.com/spot_free_wifi_wireless_hotspot_Potion_Cafe_New_York_NY_5870.aspx,,Free,11206
1287,Smooch,264 Carlton Avenue,Brooklyn,http://www.openwifispots.com/spot_free_wifi_wireless_hotspot_Smooch_New_York_NY_6738.aspx,,Free,11205
1288,Buffalo Wild Wings Grill & Bar,139 Flatbush Avenue,Brooklyn,http://www.openwifispots.com/spot_free_wifi_wireless_hotspot_Buffalo_Wild_Wings_Grill_and_Bar_Brooklyn_NY_329.aspx,,Free,11217
1289,Goodbye Blue Monday,1087 Broadway,Brooklyn,http://www.openwifispots.com/spot_free_wifi_wireless_hotspot_Goodbye_Blue_Monday_New_York_NY_19745.aspx,,Free,11221
1290,Joyce Bakeshop,646 Vanderbilt Avenue,Brooklyn,http://www.openwifispots.com/spot_free_wifi_wireless_hotspot_Joyce_Bakeshop_Brooklyn_NY_24637.aspx,,Free,11238
1291,Solomon's Porch,307 Stuyvesant Avenue,Brooklyn,http://www.openwifispots.com/spot_free_wifi_wireless_hotspot_Solomons_Porch_New_York_NY_6742.aspx,,Free,11233
1292,CDSC Clinton Hill,352 Classon Avenue,Brooklyn,https://auth.nycwireless.net/hotspots_map.php,,Free,11238
1293,Co Labs,247  Stuyvesant Avenue,Brooklyn,https://auth.nycwireless.net/hotspots_map.php,,Free,11221
1294,Office Depot,1441 Broadway,New York,http://www.openwifispots.com/spot_free_wifi_wireless_hotspot_Office_Depot_New_York_NY_3837.aspx,,Free,10018
1296,Sugar Café,200 Allen Street,New York,http://www.openwifispots.com/spot_free_wifi_wireless_hotspot_Sugar_Cafe_New_York_NY_5537.aspx,,Free,10002
1297,Vinny Vincenz Square Pizza,231 1st Avenue,New York,http://www.openwifispots.com/spot_free_wifi_wireless_hotspot_Vinny_Vincenz_Square_Pizza_New_York_NY_6878.aspx,,Free,10003
1298,Witchcraft - Midtwon,555 5th Avenue,New York,http://www.openwifispots.com/spot_free_wifi_wireless_hotspot_Wichcraft_New_York_NY_6040.aspx,,Free,10017
1299,Witchcraft - Tribeca,397 Greenwich Street,New York,http://www.openwifinyc.com/classic/a/witchcraft-Tribeca-NY-10013,,Free,10013
1300,Witchcraft - Flatiron,11 East 20th Street,New York,http://www.openwifinyc.com/classic/a/witchcraft-Flatiron-NY-10003,,Free,10003
1301,Witchcraft - Village,60 East 8th Street,New York,http://www.openwifinyc.com/classic/a/witchcraft-Village-NY-10003,,Free,10003
1302,Wichcraft,269 11th Avenue,New York,http://www.openwifispots.com/citylist_free_wifi_wireless_hotspot-New_York_NY.aspx,,Free,10001
1303,Witchcrafft - Park Ave,245 Park Avenue,New York,http://www.openwifinyc.com/classic/a/witchcraft-Park-Ave-NY-10167,,Free,10017
1304,Whole Foods Market,270 Greenwich Street,New York,http://www.openwifispots.com/spot_free_wifi_wireless_hotspot_Whole_Foods_Market_New_York_NY_89527.aspx,,Free,10007
1305,Whole Foods Market,95 E Houston Street,New York,http://www.openwifispots.com/spot_free_wifi_wireless_hotspot_Whole_Foods_Market_New_York_NY_89526.aspx,,Free,10002
1306,Whole Foods Market,4 Union Square E,New York,http://www.openwifispots.com/spot_free_wifi_wireless_hotspot_Whole_Foods_Market_New_York_NY_89525.aspx,,Free,10003
1307,Whole Foods Market,250 7th Avenue,New York,http://www.openwifispots.com/citylist_free_wifi_wireless_hotspot-New_York_NY.aspx,,Free,10001
1308,Whole Foods Market,10 Columbus Cir,New York,http://www.openwifispots.com/citylist_free_wifi_wireless_hotspot-New_York_NY.aspx,,Free,10019
1309,Yogurteria,699 W 39th Street,New York,http://www.openwifispots.com/citylist_free_wifi_wireless_hotspot-New_York_NY.aspx,,Free,10018
1310,Yogurteria,213-35 39th Avenue,Bayside,http://www.wififreespot.com/ny.html,,Free,11361
1311,Yushi Suhi  Park Ave,245 Park Avenue,New York,http://www.openwifinyc.com/classic/a/Yushi-Sushi-Park-Ave-NY-10167,,Free,10017
1312,Juan Valdez -Lexington Avenue,480 Lexington Avenue,New York,http://www.openwifinyc.com/classic/a/Juan-Valdez-Lexington-Ave-NY-10167,,Free,10017
1313,Juan Valdez - Times Square,1451 Broadway,New York,http://www.openwifinyc.com/classic/a/Juan-Valdez-Times-Sq-NY-10036,,Free,10036
1314,Sublte Tea,121 Madison Ave,New York,http://www.openwifinyc.com/classic/a/Subtle-Tea-NY-10016,,Free,10016
1315,Bonobo,18 East 23rd Street,New York,http://www.openwifinyc.com/classic/a/Bonobo-NY-10010,,Free,10010
1316,Koyzina Café,62 William Street,New York,http://www.openwifinyc.com/classic/a/Koyzina-Cafe-NY-10006,,Free,10005
1317,Financier,62 Stone Street,New York,http://www.openwifinyc.com/classic/a/Financier-NY-10004,,Free,10004
1318,Gregory's Coffee,327  Park Avenue South,New York,http://www.openwifinyc.com/classic/a/Gregorys-Coffee-NY-10010,,Free,10010
1319,View Bar,232 8th Avenue,New York,http://www.openwifinyc.com/classic/a/View-Bar-NY-10011,,Free,10011
1320,Rice,115 Lexington Ave,New York,http://www.openwifinyc.com/classic/a/Rice-NY-10016,,Free,10016
1321,Grand Central Terminal at the Dinining Concourse,87 E 42nd Street,New York,http://www.openwifispots.com/spot_free_wifi_wireless_hotspot_Grand_Central_Terminal_at_the_Dining_Concourse_New_York_NY_19746.aspx,,Free,10017
1323,Barnes & Noble,31 10 Thomson Avenue,New York,http://www.barnesandnobleinc.com,,Free,11101
1324,Barnes & Noble,40 Worth Street,New York,http://www.barnesandnobleinc.com,,Free,10013
1325,Barnes & Noble,97 Warren Street,New York,http://www.barnesandnobleinc.com,,Free,10007
1326,Barnes & Noble,222 Clinton Avenue,Brooklyn,http://www.barnesandnobleinc.com,,Free,11205
1328,Barnes & Noble,150 East 86th Street,New York,http://www.barnesandnobleinc.com,,Free,10028
1330,Barnes & Noble,70-00 Austin Street,Forest Hills,http://www.barnesandnobleinc.com,,Free,11375
1331,Barnes & Noble,176-60 Union Turnpike,Fresh Meadows,http://www.barnesandnobleinc.com,,Free,11366
1332,Guy & Gallard - East 34 St,120 East 34 Street,New York,http://www.openwifinyc.com/classic/a/Guy-and-Gallard-East-34-St-NY-10016,,Free,10016
1333,Guy & Gallard - Madison Ave,28 East 34th Street,New York,http://www.openwifinyc.com/classic/a/Guy-and-Gallard-Madison-Ave-NY-10016,,Free,10016
1334,Guy & Gallard - 7th Ave,469 7th Avenue,New York,http://www.openwifinyc.com/classic/a/Guy-and-Gallard-7th-Ave-NY-10018,,Free,10018
1335,Guy & Gallard - West 38 St,245 West 38th Street,New York,http://www.openwifinyc.com/classic/a/Guy-and-Gallard-West-38-St-NY-10018,,Free,10018
1336,Guy & Gallard - 6th Ave,1001 6th Avenue,New York,http://www.openwifinyc.com/classic/a/Guy-and-Gallard-6th-Ave-NY-10018,,Free,10018
1337,Chevy's Fresh Mex,259 W 42nd Street,New York,http://www.chevysny.com,,Free,10036
1338,Chevy's Fresh Mex,2690 Hylan Blvd,Staten Island,http://www.chevysny.com,,Free,10306
1339,Good to Go Rest,1894 Eastchester Rd,Bronx,http://www.wififreespot.com/ny.html,,Free,10461
1340,Burger King,103 E 161 Street,Bronx,http://www.wififreespot.com/ny.html,,Free,10451
1346,McDonald's,35-40 Nostrand Ave,Brooklyn,http://www.mcdonalds.com/wireless.html,,Fee-based,11206
1353,Starbucks,910 Manhattan Avenue,Brooklyn,http://www.starbucks.com,,Fee-based,11222
1358,JFK International Airport - Delta Sky Club,"Terminal 4, Second level, landside overlooking the concourse -Oasis Lounge",Jamaica,http://www.delta.com/traveling_checkin/airport_information/delta_sky_club/sky_club_locations/index.jsp,,Fee-based,11430
1359,Metropolitan Museum of Art,1000 Fifth Avenue,New York,http://www.metmuseum.org/,,Fee-based,10028
670,Starbucks,462 7th Avenue,New York,http://www.starbucks.com,212-279-6432,Fee-based,10018
671,Starbucks,2681 Broadway,New York,http://www.starbucks.com,212-280-1811,Fee-based,10025
672,Starbucks,494 Eighth Ave.,New York,http://www.starbucks.com,212-947-3860,Fee-based,10001
673,Starbucks,334 Fifth Ave.,New York,http://www.starbucks.com,212-279-2960,Fee-based,10001
674,Starbucks,76 9th Ave,New York,http://www.starbucks.com,646-230-7145,Fee-based,10011
676,Starbucks,875 Sixth Ave,New York,http://www.starbucks.com,212-629-6512,Fee-based,10001
677,Starbucks,585 2nd Avenue,New York,http://www.starbucks.com,212-684-1299,Fee-based,10016
697,Starbucks,145 Third Avenue,New York,http://www.starbucks.com,212-677-7248,Fee-based,10003
698,Starbucks,10 UNION SQUARE EAST,New York,http://www.starbucks.com,212-982-8426,Fee-based,10003
699,Starbucks,510 Sixth Avenue,New York,http://www.starbucks.com,212-242-5981,Fee-based,10011
700,Starbucks,93 Greenwich Avenue,New York,http://www.starbucks.com,212-462-4697,Fee-based,10014
701,Starbucks,450 7th Avenue,New York,http://www.starbucks.com,212-279-1122,Fee-based,10001
702,Starbucks,21 East 8th Street,New York,http://www.starbucks.com,212-982-7505,Fee-based,10003
703,Starbucks,51 Astor Place,New York,http://www.starbucks.com,212-677-6447,Fee-based,10003
704,Starbucks,13-25 Astor Place,New York,http://www.starbucks.com,212-982-3563,Fee-based,10003
705,Starbucks,378 6th Avenue,New York,http://www.starbucks.com,212-477-2690,Fee-based,10011
706,Starbucks,72 Grove Street,New York,http://www.starbucks.com,646-486-2216,Fee-based,10014
707,Starbucks,665 Broadway,New York,http://www.starbucks.com,917-534-0799,Fee-based,10012
708,Starbucks,150 Varick Street,New York,http://www.starbucks.com,646-230-9816,Fee-based,10013
709,Starbucks,72 SPRING STREET,New York,http://www.starbucks.com,212-219-2961,Fee-based,10012
710,Starbucks,80 Delancey Street,New York,http://www.starbucks.com,917-534-1397,Fee-based,10002
711,Starbucks,471 Broadway,New York,http://www.starbucks.com,212-219-8787,Fee-based,10013
712,Starbucks,241 Canal Street,New York,http://www.starbucks.com,212-219-2725,Fee-based,10013
713,Starbucks,111 Worth Street,New York,http://www.starbucks.com,212-964-8846,Fee-based,10013
714,Starbucks,291 Broadway,New York,http://www.starbucks.com,212-406-5310,Fee-based,10007
715,Starbucks,125 Chambers Street,New York,http://www.starbucks.com,212-791-6368,Fee-based,10007
716,Starbucks,233 Broadway,New York,http://www.starbucks.com,212-619-1529,Fee-based,10007
717,Starbucks,38 Park Row,New York,http://www.starbucks.com,212-608-8073,Fee-based,10038
718,Starbucks,195 Broadway,New York,http://www.starbucks.com,212-385-1104,Fee-based,10007
719,Starbucks,165 Broadway,New York,http://www.starbucks.com,212-608-6481,Fee-based,10006
720,Starbucks,100 William Street,New York,http://www.starbucks.com,212-509-9709,Fee-based,10038
721,Starbucks,55 Liberty Street,New York,http://www.starbucks.com,212-227-0372,Fee-based,10005
722,Starbucks,115 Broadway,New York,http://www.starbucks.com,212-732-9268,Fee-based,10006
723,Starbucks,80 Pine Street,New York,http://www.starbucks.com,212-480-3970,Fee-based,10005
724,Starbucks,45 Wall Street,New York,http://www.starbucks.com,212-269-8717,Fee-based,10005
725,Starbucks,100 Wall Street,New York,http://www.starbucks.com,212-809-1556,Fee-based,10005
726,Starbucks,2 Broadway,New York,http://www.starbucks.com,212-742-2488,Fee-based,10004
727,Starbucks,55 Broad Street,New York,http://www.starbucks.com,212-742-2488,Fee-based,10004
728,Starbucks,3 New York Plaza,New York,http://www.starbucks.com,212-785-1082,Fee-based,10004
729,Starbucks,1 Battery Park Plaza,New York,http://www.starbucks.com,212-482-1180,Fee-based,10004
730,Starbucks,803 W 181st St,New York,http://www.starbucks.com,212-927-4272,Fee-based,10033
731,T-Mobile,2409 Broadway,New York,http://www.t-mobile.com/,212-279-4688,Fee-based,10024
732,Cyber Cafe - Taste of New York Food Court,707 8th Avenue,New York,,,Fee-based,10036
733,Tasti D Lite,191 E Houston Street,New York,,212-228-6407,Fee-based,10002
734,Tasti D Lite,132 E 23rd Street,New York,,212-473-8900,Fee-based,10010
735,TGI Friday's,W. 34th Street & 8th Avenue,New York,,,Fee-based,10001
736,The Coffee Pot,41 Avenue A,New York,,,Fee-based,10009
737,The Coleman Center,810 7th Avenue,New York,,212-541-4600,Fee-based,10019
738,The Music Gallery,49 Ann Street,New York,,917-686-0975,Fee-based,10038
739,The UPS Store,2753 Broadway,New York,http://www.theupsstore.com/,212-222-1202,Fee-based,10025
740,The UPS Store,217 E 86 St,New York,http://www.theupsstore.com,,Fee-based,10028
741,The UPS Store,366 Amsterdam Avenue,New York,http://www.theupsstore.com/,,Fee-based,10024
742,The UPS Store,954 3rd Ave,New York,http://www.theupsstore.com/,212-319-1928,Fee-based,10022
743,The UPS Store,4768 Broadway,New York,http://www.theupsstore.com/,212-304-0282,Fee-based,10034
744,The UPS Store,132 East 43rd St,New York,http://www.theupsstore.com/,212-867-0001,Fee-based,10017
745,The UPS Store,1357 Broadway,New York,http://www.theupsstore.com,212-736-3255,Fee-based,10018
746,The UPS Store,2216 Frederick Douglas Blvd,New York,http://www.theupsstore.com/,,Fee-based,10026
747,The UPS Store,7 E 8th St,New York,http://www.theupsstore.com/,212-477-3350,Fee-based,10003
748,The UPS Store,527 3rd Ave,New York,http://www.theupsstore.com,212-683-9634,Fee-based,10016
749,The UPS Store,163 3rd Ave,New York,http://www.theupsstore.com,212-533-9100,Fee-based,10003
750,Time Square Deli,211 West 43rd street,New York,,,Fee-based,10036
751,T-Mobile,732 Broadway,New York,http://www.t-mobile.com/,212-674-5377,Fee-based,10003
752,T-Mobile,55 West 125th Street,New York,http://www.t-mobile.com/,212-996-9477,Fee-based,10027
753,T-Mobile,307 Madison Avenue,New York,http://www.t-mobile.com,212-687-4800,Fee-based,10017
754,T-Mobile,180 Fifth Avenue,New York,http://www.t-mobile.com/,212-352-2500,Fee-based,10010
755,T-Mobile,228 East 86th Street,New York,http://www.t-mobile.com/,212-535-6604,Fee-based,10028
756,T-Mobile,2181 Broadway,New York,http://www.t-mobile.com/,212-580-4381,Fee-based,10024
757,T-Mobile,1138 3rd Avenue,New York,http://www.t-mobile.com/,212-535-3100,Fee-based,10021
758,T-Mobile,167 West 57th Street,New York,http://www.t-mobile.com/,212-586-4979,Fee-based,10019
759,T-Mobile,253 8th Ave,New York,http://www.t-mobile.com/,212-366-5253,Fee-based,10011
760,T-Mobile,485 Madison Ave,New York,http://www.t-mobile.com/,646-735-3300,Fee-based,10022
761,T-Mobile,818 3rd Ave,New York,http://www.t-mobile.com/,917-369-9071,Fee-based,10022
762,McDonald's,West 33rd Street & 7th Avenue,New York,http://www.mcdonalds.com/wireless.html,212-736-6158,Fee-based,10001
763,Twin Deli,162 Madison Ave,New York,,212-566-6771,Fee-based,10016
764,Webtoast Hotspot on the Upper West Side,610 West 110 Street,New York,http://www.webtoast.com/,212-354-2277,Fee-based,10025
765,Webtoast Internet Service Inc.,21 West 46 Street,New York,,212-354-2277,Fee-based,10036
766,Zocalo at Grand Central Terminal,42nd Street & Park Avenue,New York,,,Fee-based,10017
767,Tavern on the Green: NuVision,Central Park at West 67th Steet,New York,,800-221-1574,Fee-based,10023
768,NuVision,71 Broadway,New York,,800-221-1574,Fee-based,10006
769,Trump World Tower: NuVision,845 United Nations Plaza,New York,,800-221-1574,Fee-based,10017
770,Trump Tower Mall: NuVision,737 5th Avenue,New York,,800-221-1574,Fee-based,10022
771,Trump International: NuVision,One Central Park West,New York,,800-221-1574,Fee-based,10023
772,Trump Place: NuVision,140 Riverside Blvd,New York,,800-221-1574,Fee-based,10023
773,Trump Place: NuVision,160 Riverside Blvd,New York,,800-221-1574,Fee-based,10069
820,Lever House,390 Park Avenue,New York,,,Fee-based,10022
822,8th Street and Macdougal,177 Macdougal Street,New York,,,Fee-based,10011
823,Affinia 50,155 East 50th Street,New York,,,Fee-based,10022
824,Avalon Chrystie Place,229 Chrystie street,New York,,,Fee-based,10002
825,Cafe 28,245 Fifth Avenue,New York,,,Fee-based,10016
826,Chelsea Piers,West Side Highway and 23rd Street,New York,http://www.chelseapiers.com/index.html#,,Fee-based,10010
829,"Club Quarters, Downtown",52 William St,New York,,212-269-6400,Fee-based,10005
830,"Club Quarters, Midtown",40 W 45th St,New York,,212-354-6400,Fee-based,10036
839,Fedex Kinko's,110 William Street,New York,http://www.FedexKinkos.com,212-766-4646,Fee-based,10038
840,Houlihan's,2 Penn Plaza,New York,,,Fee-based,10001
841,Hudson,356 W 58th St,New York,,212-554-6000,Fee-based,10019
842,Jolly Madison Towers,22 E 38th St,New York,,212-802-0600,Fee-based,10016
843,McDonald's,18 East 42nd Street,New York,http://www.mcdonalds.com/wireless.html,212-599-2127,Fee-based,10017
844,McDonald's,729 2nd Avenue,New York,http://www.mcdonalds.com/wireless.html,212-686-7124,Fee-based,10016
847,McDonald's,1109 6th Avenue,New York,http://www.mcdonalds.com/wireless.html,212-827-0378,Fee-based,10036
849,McDonald's,4040 Broadway,New York,http://www.mcdonalds.com/wireless.html,212-732-7376,Fee-based,10032
850,McDonald's,1997 3rd Ave,New York,http://www.mcdonalds.com/wireless.html,212-369-4816,Fee-based,10029
852,NY State Supreme Court,111 Centre St.,New York,,,Fee-based,10013
853,NY State Supreme Court,71 Thomas St.,New York,,,Fee-based,10013
856,Public Telephone,37 St. Marks Place,New York,,,Fee-based,10003
857,Related-Tate,535 W 23rd St,New York,,,Fee-based,10011
858,Shelburne Murray Hill,303 Lexington Ave,New York,,212-689-5200,Fee-based,10016
859,Sherwood Equities,1600 Broadway,New York,,,Fee-based,10019
862,Starbucks,830 Third Avenue,New York,http://www.starbucks.com,212-980-1748,Fee-based,10022
863,Starbucks,801 West 181st Street,New York,http://www.starbucks.com,212-927-4272,Fee-based,10033
864,Starbucks,78 Spring Street,New York,http://www.starbucks.com,212-219-2961,Fee-based,10012
865,Starbucks,100 Church Street,New York,http://www.starbucks.com,212-513-1006,Fee-based,10007
866,Starbucks,3410 Broadway,New York,http://www.starbucks.com,212-694-2287,Fee-based,10031
868,Starbucks,141 2nd Avenue,New York,http://www.starbucks.com,212-780-0024,Fee-based,10003
869,Starbucks,63 West 30th Street,New York,http://www.starbucks.com,212-564-0373,Fee-based,10001
870,Starbucks,655 Lexington Avenue,New York,http://www.starbucks.com,212-308-5717,Fee-based,10022
871,Starbucks,250 Vesey Street,New York,http://www.starbucks.com,212-587-9512,Fee-based,10282
872,Starbucks,48 West 73rd Street,New York,http://www.starbucks.com,212-579-7834,Fee-based,10023
873,Starbucks,2379 Broadway,New York,http://www.starbucks.com,212-875-8470,Fee-based,10024
874,Starbucks,2610 Broadway,New York,http://www.starbucks.com,212-316-9401,Fee-based,10025
875,Starbucks,731 Lexington Avenue,New York,http://www.starbucks.com,212-644-0692,Fee-based,10022
876,Starbucks,95 West Broadway,New York,http://www.starbucks.com,212-791-6368,Fee-based,10013
877,Starbucks,110 Pearl Street,New York,http://www.starbucks.com,212-482-6530,Fee-based,10005
878,Starbucks,140 Varick Street,New York,http://www.starbucks.com,646-230-9816,Fee-based,10013
879,Starbucks,1021 Third Avenue,New York,http://www.starbucks.com,212-486-6764,Fee-based,10021
880,T-Mobile,170 Broadway,New York,http://www.t-mobile.com/,212-571-5077,Fee-based,10038
881,TCC Teleplex Public Telephone,410 West Broadway,New York,,212-965-8800,Fee-based,10012
885,The UPS Store,342 Broadway,New York,http://www.theupsstore.com,212-842-5383,Fee-based,10013
909,Big Cup Tea & Coffee House,228 8th Ave,New York,,212-206-0059,Fee-based,10011
910,Zeytuna Market,59 Maiden Ln,New York,,347-643-9960,Fee-based,10038
913,AL,1933 79th Street,Brooklyn,,718-343-9533,Fee-based,11214
914,Affinia Dumont,150 E. 34th Street,Brooklyn,,,Fee-based,11203
917,Fedex Kinko's,16 Court Street,Brooklyn,http://www.FedexKinkos.com,718-852-5631,Fee-based,11201
918,McDonald's,1642 Pitkin Ave,Brooklyn,http://www.mcdonalds.com/wireless.html,,Fee-based,11212
919,McDonald's,6620 Bay Pky,Brooklyn,http://www.mcdonalds.com/wireless.html,718-331-6739,Fee-based,11204
920,McDonald's,2410 Coney Island Ave,Brooklyn,http://www.mcdonalds.com/wireless.html,,Fee-based,11223
921,McDonald's,357 Hamilton Avenue,Brooklyn,http://www.mcdonalds.com/wireless.html,,Fee-based,11231
922,McDonald's,82 Court St,Brooklyn,http://www.mcdonalds.com/wireless.html,718-852-2626,Fee-based,11201
923,McDonald's,1275 Fulton Street,Brooklyn,http://www.mcdonalds.com/wireless.html,,Fee-based,11216
924,McDonald's,6419 18th Ave,Brooklyn,http://www.mcdonalds.com/wireless.html,718-837-6322,Fee-based,11204
925,McDonald's,1930 Nostrand Ave,Brooklyn,http://www.mcdonalds.com/wireless.html,,Fee-based,11210
926,McDonald's,516A Myrtle Ave,Brooklyn,http://www.mcdonalds.com/wireless.html,718-638-8523,Fee-based,11205
927,McDonald's,420 Fulton St,Brooklyn,http://www.mcdonalds.com/wireless.html,,Fee-based,11201
928,McDonald's,840 Atlantic Ave,Brooklyn,http://www.mcdonalds.com/wireless.html,,Fee-based,11238
929,McDonald's,1380 Broadway,Brooklyn,http://www.mcdonalds.com/wireless.html,,Fee-based,11221
930,Starbucks Atlantic Terminal,139 Flatbush Ave,Brooklyn,http://www.starbucks.com,718-789-3418,Fee-based,11217
932,T-Mobile,24 Graham Avenue,Brooklyn,http://www.t-mobile.com,718-302-0046,Fee-based,11206
933,T-Mobile,440 86th Street,Brooklyn,http://www.t-mobile.com,718-748-1220,Fee-based,11209
934,T-Mobile,2165 86th Street,Brooklyn,http://www.t-mobile.com,718-373-1740,Fee-based,11214
935,The Chocolate Monkey,329 Flatbush Ave,Brooklyn,,,Fee-based,11217
936,The UPS Store,138 Court St,Brooklyn,http://www.theUPSstore.com,,Fee-based,11201
937,The UPS Store,320 7th Ave,Brooklyn,http://www.theUPSstore.com,,Fee-based,11215
938,The UPS Store,8225 5th Ave,Brooklyn,http://www.theUPSstore.com,718-680-8225,Fee-based,11209
1006,McDonald's,22 E 23rd St Flatiron,New York,http://www.mcdonalds.com/wireless.html,,Fee-based,10010
1007,JFK International Airport - American Airlines Admirals Club (Domestic),"Terminal 9, Concourse C, across from gate 42",Jamaica,http://www.aa.com/content/aboutUs/whereWeFly/terminals/terminal_JFK.jhtml,,Fee-based,11430
1008,JFK International Airport - American Airlines Admirals Club (International),"Terminal 8, Concourse B, above international ticket lobby",Jamaica,http://www.aa.com/content/aboutUs/whereWeFly/terminals/terminal_JFK.jhtml,,Fee-based,11430
1009,LaGuardia Airport - American Airlines Admirals Club,"Central Terminal Building, Concourse D, across from Gate D3",Flushing,http://www.aa.com/content/aboutUs/whereWeFly/terminals/terminal_LGA.jhtml,,Fee-based,11369
1010,LaGuardia Airport,Central Terminal Baggage Claim,Flushing,http://www.boingo.com/search.html?stype=&pgt=results&cnty=US&ste=NY&cty=New%20York&cte=&zc=&dm=1&oft=100&sb=1,1-800-550-5030,Fee-based,11369
1011,LaGuardia Airport,Central Terminal Concourse A,Flushing,http://www.boingo.com/search.html?stype=&pgt=results&cnty=US&ste=NY&cty=New%20York&cte=&zc=&dm=1&oft=100&sb=1,718-533-3401,Fee-based,11369
1012,LaGuardia Airport,Central Terminal Concourse B,Flushing,http://www.boingo.com/search.html?stype=&pgt=results&cnty=US&ste=NY&cty=New%20York&cte=&zc=&dm=1&oft=100&sb=2,718-533-3402,Fee-based,11369
1013,LaGuardia Airport,Central Terminal Concourse C,Flushing,http://www.boingo.com/search.html?stype=&pgt=results&cnty=US&ste=NY&cty=New%20York&cte=&zc=&dm=1&oft=100&sb=3,718-533-3403,Fee-based,11369
1014,LaGuardia Airport,Central Terminal Concourse D,Flushing,http://www.boingo.com/search.html?stype=&pgt=results&cnty=US&ste=NY&cty=New%20York&cte=&zc=&dm=1&oft=100&sb=4,718-533-3404,Fee-based,11369
1015,LaGuardia Airport,Central Terminal Food Court,Flushing,http://www.boingo.com/search.html?stype=&pgt=results&cnty=US&ste=NY&cty=New%20York&cte=&zc=&dm=1&oft=100&sb=5,718-533-3405,Fee-based,11369
1016,LaGuardia Airport,Central Terminal Ticketing Area,Flushing,http://www.boingo.com/search.html?stype=&pgt=results&cnty=US&ste=NY&cty=New%20York&cte=&zc=&dm=1&oft=100&sb=6,718-533-3406,Fee-based,11369
1017,LaGuardia Airport,US Airways Terminal,Flushing,http://www.boingo.com/search.html?stype=&pgt=results&cnty=US&ste=NY&cty=New%20York&cte=&zc=&dm=1&oft=100&sb=7,718-533-3407,Fee-based,11369
1018,JFK International Airport - Roaming,Terminal 1,Jamaica,https://selfcare.hotspot.t-mobile.com/locations/displayUSRoamingLocationDetails.do?locationID=CCG34,1-800-550-5030,Fee-based,11430
1019,JFK International Airport - Roaming,Terminal 8,Jamaica,https://selfcare.hotspot.t-mobile.com/locations/displayUSRoamingLocationDetails.do?locationID=CCG34,1-800-550-5030,Fee-based,11430
1020,LaGuardia Airport - Delta Airlines Crown Room Club,"Concourse level, inside security before Gate 2",Flushing,http://www.delta.com/traveling_checkin/airport_information/airport_maps/new_york_lga/index.jsp,1-800-323-2323,Fee-based,11369
1021,JFK International Airport - Delta Airlines Crown Room Club,"Terminal 3, above Gate 6",Jamaica,http://www.delta.com/traveling_checkin/airport_information/airport_maps/new_york_jfk/index.jsp,1-800-323-2323,Fee-based,11430
1022,JFK International Airport - Delta Business Elite Lounge,"Terminal 3, near Gate 10",Jamaica,http://www.delta.com/traveling_checkin/airport_information/airport_maps/new_york_jfk/index.jsp,1-800-323-2323,Fee-based,11430
1023,JFK International Airport - Delta Business Elite Lounge,"Terminal 3, near Gate 12",Jamaica,http://www.delta.com/traveling_checkin/airport_information/airport_maps/new_york_jfk/index.jsp,1-800-323-2323,Fee-based,11430
1024,JFK International Airport - Delta Business Elite Lounge,"Terminal 2, Upper Mezzanine, near Gate 21",Jamaica,http://www.delta.com/traveling_checkin/airport_information/airport_maps/new_york_jfk/index.jsp,1-800-323-2323,Fee-based,11430
1025,JFK International Airport - United Red Carpet Club,"Terminal 7, one level above Ticket Counter",Jamaica,"http://www.united.com/page/article/0,1360,1117,00.html",1-877-822-SPOT,Fee-based,11430
1026,LaGuardia Airport - United Red Carpet Club,Concourse C behind ticket counter,Flushing,"http://www.united.com/page/article/0,1360,50338,00.html",1-877-822-SPOT,Fee-based,11369
1028,JFK International Airport - British Airways Concorde Room,Terminal 7,Jamaica,http://btopenzone.hotspot-directory.com/site_details.php?site_id=82846&from=search&offset=1,,Fee-based,11430
1029,JFK International Airport - British Airways FIRST Lounge,Terminal 7,Jamaica,http://btopenzone.hotspot-directory.com/site_details.php?site_id=82846&from=search&offset=1,,Fee-based,11430
1030,JFK International Airport - British Airways Terraces Lounge,Terminal 7,Jamaica,http://btopenzone.hotspot-directory.com/site_details.php?site_id=82846&from=search&offset=1,,Fee-based,11430
1032,The Seagram Building,375 Park Ave.,New York,,,Fee-based,10022
1033,Equinox 108 - Fifth Ave @ 43rd,521 5th Avenue,New York,http://www.equinoxfitness.com/,,Fee-based,10017
1034,Public Telephone,2 West 48th Street,New York,,,Fee-based,10036
1035,Public Telephone,76 3rd Avenue,New York,,,Fee-based,10003
1036,Public Telephone,Corner of E. 17th Street + Union Square West,New York,,,Fee-based,10003
1037,135 Star Donuts Inc,13541 Roosevelt Ave,Flushing,,,Fee-based,11354
1038,31st Street,2121 31st Street,Astoria,http://www.AlbAssociates.com,,Fee-based,11105
1039,Avalon Riverview-NY,201 50th Ave,Long Island City,,,Fee-based,11101
1040,Avis - JFK Airport,305 Federal Circle,Jamaica,http://www.avis.com/,718-244-5400,Fee-based,11430
1041,Avis - LaGuardia,"Laguardia Airport, Building 25",Flushing,http://www.avis.com/,718-507-3600,Fee-based,11369
1043,JFK International Airport - Avion Bar,"Avion Bar, located in Terminal 4",Jamaica,,,Fee-based,11430
1044,JFK International Airport - Brooklyn Brewer,"Brooklyn Brewers, located in Terminal 1",Jamaica,,,Fee-based,11430
1045,JFK International Airport - Delancy's,"Delancy's, located in Terminal 4",Jamaica,,,Fee-based,11430
1046,JFK International Airport - Kosher Franks,Terminal 8 in the vicinity of Kosher Franks,Jamaica,,,Fee-based,11430
1047,McDonald's,2870 3rd Ave,Bronx,http://www.mcdonalds.com/wireless.html,,Fee-based,10455
1048,McDonald's,1625 Webster Ave,Bronx,http://www.mcdonalds.com/wireless.html,(718) 299-0849,Fee-based,10457
1049,McDonald's,1540 Westchester Ave,Bronx,http://www.mcdonalds.com/wireless.html,,Fee-based,10472
1050,McDonald's,5804 Clarendon Rd,Brooklyn,http://www.mcdonalds.com/wireless.html,(718) 451-0834,Fee-based,11203
1051,McDonald's,180 Parkside Ave,Brooklyn,http://www.mcdonalds.com/wireless.html,(718) 282-2289,Fee-based,11226
1059,Starbucks,112 Montague Street,Brooklyn,http://www.starbucks.com,718-243-0455,Fee-based,11201
1060,Starbucks,480 Forest Ave,Staten Island,http://www.starbucks.com,718-273-5984,Fee-based,10301
1061,Starbucks,1756 Forest Avenue,Staten Island,http://www.starbucks.com,718-697-0293,Fee-based,10303
1062,Starbucks,61-51 188th Street,Fresh Meadows,http://www.starbucks.com,718-264-0658,Fee-based,11365
1063,Starbucks,138-11 20th Avenue,Whitestone,http://www.starbucks.com,718-539-4072,Fee-based,11356
1064,Starbucks,215-29 Northern Blvd.,Bayside,http://www.starbucks.com,718-281-4165,Fee-based,11361
1065,Starbucks,46-09 Queens Blvd.,Sunnyside,http://www.starbucks.com,718-472-5215,Fee-based,11104
1066,Starbucks,242-02 61st Avenue,Douglaston,http://www.starbucks.com,718-224-5316,Fee-based,11362
1067,Starbucks,157-41 Cross Bay Blvd.,Howard Beach,http://www.starbucks.com,718-641-9332,Fee-based,11414
1068,Starbucks,455 Main Street,New York,http://www.starbucks.com,212-371-1298,Fee-based,10044
1069,Starbucks,1515 York Avenue,New York,http://www.starbucks.com,212-472-3581,Fee-based,10028
1071,Starbucks,40-50 W 225th St,Bronx,http://www.starbucks.com,,Fee-based,10463
1084,Cafeteria 61,61 5th Ave,New York,,212-691-5555,Fee-based,10003
1085,Columbus Cafe,556 Columbus Ave.,New York,,212-721-9040,Fee-based,10024
1091,McDonalds,151 WEST 34TH STREET,New York,http://www.mcdonalds.com/wireless.html,,Fee-based,10001
1092,McDonalds,395 FLATBUSH AVE EXTEN,Brooklyn,http://www.mcdonalds.com/wireless.html,,Fee-based,11201
1093,McDonalds,904 MANHATTAN AVE & GREENPOINT,Brooklyn,http://www.mcdonalds.com/wireless.html,,Fee-based,11222
1094,McDonalds,79 W 125TH ST,New York,http://www.mcdonalds.com/wireless.html,,Fee-based,10027
1095,McDonalds,1388 HYLAN BLVD,Staten Island,http://www.mcdonalds.com/wireless.html,,Fee-based,10305
1096,McDonalds,1509 SHEEPSHEAD BAY RD,Brooklyn,http://www.mcdonalds.com/wireless.html,,Fee-based,11235
1097,McDonalds,87-84 SUTPHIN BLVD,Jamaica,http://www.mcdonalds.com/wireless.html,,Fee-based,11435
1098,McDonalds,1660 RICHMOND AVE,Staten Island,http://www.mcdonalds.com/wireless.html,,Fee-based,10314
1099,McDonalds,166-30 JAMAICA AVE,Queens,http://www.mcdonalds.com/wireless.html,,Fee-based,11432
1100,Starbucks,405 Broadway,New York,http://www.starbucks.com,646-613-0148,Fee-based,10013
1101,Starbucks,345 Hudson St.,New York,http://www.starbucks.com,646-486-0487,Fee-based,10014
1102,Starbucks,518 Hudson Street,New York,http://www.starbucks.com,646-486-0524,Fee-based,10014
1103,Starbucks,4 W. 21st Street,New York,http://www.starbucks.com,646-336-6583,Fee-based,10010
1104,Starbucks,164 Smith Street,Brooklyn,http://www.starbucks.com,718-422-0178,Fee-based,11201
1105,Starbucks,373 5th Avenue,New York,http://www.starbucks.com,212-213-5363,Fee-based,10016
1106,Starbucks,910 Manhattan Avenue,Brooklyn,http://www.starbucks.com,718-609-0467,Fee-based,11222
1107,Starbucks,1602 Broadway,New York,http://www.starbucks.com,212-245-1936,Fee-based,10019
1108,Starbucks,1889 Broadway,New York,http://www.starbucks.com,212-245-1362,Fee-based,10023
1109,Starbucks,1261 Lexington Avenue,New York,http://www.starbucks.com,212-879-1764,Fee-based,10028
1110,Starbucks,514 86th Street,Brooklyn,http://www.starbucks.com,718-491-1340,Fee-based,11209
1111,Starbucks,2655 Richmond Avenue,Staten Island,http://www.starbucks.com,718-477-5010,Fee-based,10314
1116,220 E. 42nd Street,220 E. 42nd Street,New York,,877-353-3377,Fee-based,10017
1118,520 West 110th Street,520 West 110th Street,New York,,,Fee-based,10025
1119,Arome Deli and Pizzeria,138 West 32nd Street,New York,,212-295-7870,Fee-based,10001
1123,Equinox 103 - Broadway @ 92nd,2465 Broadway,New York,http://www.equinoxfitness.com/,212-719-1818,Fee-based,10025
1124,Equinox 104 - 3rd Ave. @ 85th,205 East 85th Street,New York,http://www.equinoxfitness.com/,212-774-6354,Fee-based,10028
1125,Equinox 105 - Lexington Ave @ 63rd,140 East 63rd Street,New York,http://www.equinoxfitness.com/,212-774-6355,Fee-based,10065
1126,Equinox 111 - Murray @ W. Broadway,54 Murray Street,New York,http://www.equinoxfitness.com/,212-566-6555,Fee-based,10007
1127,Equinox 112 - Greenwhich Ave,97 Greenwhich Avenue,New York,http://www.equinoxfitness.com/,212-774-6362,Fee-based,10014
1128,Equinox 113 - Columbus Circle @ 60th,10 Columbus Circle,New York,http://www.equinoxfitness.com/,212-871-0425,Fee-based,10019
1129,Equinox 130 - Brooklyn Heights,194 Joralemon,Brooklyn,http://www.equinoxfitness.com/,718-522-7533,Fee-based,11201
1132,Gourmet Food,707 Lexington Ave,New York,,212-980-0890,Fee-based,10022
1133,JFK International Airport,Terminals 1 arrival halls and baggage claim,Jamaica,,217-244-4444,Fee-based,11430
1134,JFK International Airport,Terminals 4 arrival halls and baggage claim,Jamaica,,217-244-4444,Fee-based,11430
1135,JFK International Airport,Terminals 7 arrival halls and baggage claim,Jamaica,,217-244-4444,Fee-based,11430
1136,JFK International Airport,Terminals 9 arrival halls and baggage claim,Jamaica,,217-244-4444,Fee-based,11430
1138,JFK International Airport - Hertz,Building 300 Federal Circle,Jamaica,https://www.hertz.com/rentacar/index.jsp?bsc=t&targetPage=reservationOnHomepage.jsp,718-646-6000,Fee-based,11430
1171,Starbucks,6 Metro Tech,Brooklyn,http://www.starbucks.com,,Fee-based,11201
1172,Starbucks,67 Front Street,Brookyn,http://www.starbucks.com,,Fee-based,11201
1173,Starbucks,"1 Penn Plaza, Concourse Level",New York,http://www.starbucks.com,,Fee-based,10119
1174,Rosa's Pizza,168 W 27th Street,New York,,,Fee-based,10001
1178,Queens Library - Long Island City,37-44 21 Street,Long Island City,http://www.queenslibrary.org/,718-752-3700,Free,11101
1179,NYC Public Library - 58th  St  Branch,127 E 58 Street,New York,http://www.nypl.org/branch/services/wifi.html,212-759-7358,Free,10022
1180,NYC Public Library - 96th  St  Branch,112 E 96 Street,New York,http://www.nypl.org/branch/services/wifi.html,212-289-0908,Free,10128
1181,NYC Public Library - Epiphany  Branch,228 E 23rd  Street,New York,http://www.nypl.org/branch/services/wifi.html,212-679-2645,Free,10010
1182,NYC Public Library - Bloomingdale Branch,150 West 100th Street,New York,http://www.nypl.org/branch/services/wifi.html,212-222-8030,Free,10025
1183,NYC Public Library - Terence Cardinal Cooke-Cathedral Branch,560 Lexington Avenue,New York,http://www.nypl.org/branch/services/wifi.html,212-752-3824,Free,10022
1184,NYC Public Library - Kips Bay Branch,446 Third Avenue,New York,http://www.nypl.org/branch/services/wifi.html,212-683-2520,Free,10016
1185,NYC Public Library - Morningside Heights  Branch,2900 Broadway,New York,http://www.nypl.org/branch/services/wifi.html,212-864-2530,Free,10025
1186,NYC Public Library - Muhlenberg  Branch,209 West 23rd Street,New York,http://www.nypl.org/branch/services/wifi.html,212-924-1585,Free,10011
1187,NYC Public Library - Mulberry Branch,10 Jersey Street,New York,http://www.nypl.org/branch/services/wifi.html,212-966-3424,Free,10012
1188,NYC Public Library - Riverside  Branch,127 Amsterdam Avenue,New York,http://www.nypl.org/branch/services/wifi.html,212-870-1810,Free,10023
1189,NYC Public Library -Webster  Branch,1465 York Avenue,New York,http://www.nypl.org/branch/services/wifi.html,212-288-5049,Free,10075
1190,NYC Public Library - Yorkville  Branch,222 East 79th Street,New York,http://www.nypl.org/branch/services/wifi.html,212-744-5824,Free,10075
1191,NYC Public Library- Humanities and Social Sciences Library,Fifth  Avenue and 42nd Street,New York,http://www.nypl.org/research/chss/,,Free,10016
1192,NYC Public Library - Andrew Heiskell Braille & Talking Book Library,40 West 20th Street,New York,http://talkingbooks.nypl.org/,212-206-5400,Free,10011
1194,"NYC PublicLibrary - Science, Industry and Business Library",188 Madison Avenue,New York,http://www.nypl.org/research/sibl/,,Free,10016
1195,Columbia University Library,535 W 114th Street,New York,http://www.columbia.edu/cu/lweb/,,Free,10027
1196,St John's University Davis Library,101 Murray Street,New York,http://www.stjohns.edu/academics/libraries/campus/davis,,Free,10007
1197,Community Access - Davidson Avenue,1750 Davidson Avenue,Bronx,https://auth.nycwireless.net/hotspots_map.php,,Free,10453
1198,Community Access - East 2nd Street,29 East 2nd Street,New York,https://auth.nycwireless.net/hotspots_map.php,,Free,10003
1199,Community Access - Gouverneur Court,621 Water Street,New York,https://auth.nycwireless.net/hotspots_map.php,,Free,10002
1200,Coomunity Access - Rev James A. Polite Avenue,1022 Rev James  A Polite Avenue,Bronx,https://auth.nycwireless.net/hotspots_map.php,,Free,10459
1201,Community Access -Tinton Avenue,1189 Tinton Avenue,Bronx,https://auth.nycwireless.net/hotspots_map.php,,Free,10456
1202,Aroma Espresso Bar,145 Greene St,New York,http://www.openwifispots.com/spot_free_wifi_wireless_hotspot_Aroma_Espresso_Bar_New_York_NY_6071.aspx,,Free,10012
1203,Associated Supermarket,225 W 57th Street,New York,http://www.openwifispots.com/citylist_free_wifi_wireless_hotspot-New_York_NY.aspx,,Free,10019
1205,New Work City,200 Varick Street Room 578,New York,http://www.nwcny.com/,,Free,10014
1206,Panera Bread,340 Baychester Avenue,Bronx,http://www.panerabread.com/cafes/results.php?NAV=2&state=NY&zip=&city=&address=&radius=10&action=searchwifi,,Free,10475
1207,Panera Bread,25441 Horace Harding Expressway,Little Neck,http://www.panerabread.com/cafes/results.php?NAV=2&state=NY&zip=&city=&address=&radius=10&action=searchwifi,,Free,11362
1208,Panera Bread,280 Marsh Avenue,Staten Island,http://www.panerabread.com/cafes/results.php?NAV=2&state=NY&zip=&city=&address=&radius=10&action=searchwifi,,Free,10314
1210,Panera Bread,7325 Woodhaven Boulevard,Glendale,http://www.panerabread.com/cafes/results.php?NAV=2&state=NY&zip=&city=&address=&radius=10&action=searchwifi,,Free,11385
